{"type": "FeatureCollection", "features": [{"type": "Feature", "properties": {"name": "Liberated", "date": "2022-05-31", "layer_type": "liberated"}, "geometry": {"type": "Polygon", "coordinates": [[[31.268087, 51.5582079], [31.3143346, 51.5560209], [31.3327674, 51.5504097], [31.3504552, 51.5432532], [31.3648798, 51.5283828], [31.3772364, 51.5121705], [31.4062024, 51.5074458], [31.5309998, 51.5389155], [31.563679, 51.5418388], [31.6587564, 51.5453884], [31.6924018, 51.5505119], [31.7548791, 51.5517877], [31.8237775, 51.5639839], [31.8956884, 51.6874979], [31.9380995, 51.7109197], [31.9517, 51.7334839], [32.0203219, 51.7016148], [32.0888227, 51.6535333], [32.1076807, 51.6771665], [32.0578419, 51.7476217], [32.1340323, 51.7625988], [32.278595, 51.7387362], [32.3010095, 51.7227721], [32.3243818, 51.7217263], [32.3710664, 51.693114], [32.456767, 51.6043491], [32.4573538, 51.5699243], [32.4896261, 51.5067155], [32.5390938, 51.5214264], [32.5504887, 51.5545102], [32.5219845, 51.568792], [32.556475, 51.5964178], [32.5848437, 51.6732306], [32.7409332, 51.7375012], [32.8870244, 51.7749968], [33.0336285, 51.8980522], [33.1847692, 51.9962411], [33.2262105, 51.9910636], [33.2388836, 51.9871636], [33.2451428, 51.9923193], [33.2321752, 51.9966292], [33.2405733, 52.0094769], [33.2064036, 52.0169954], [33.2477916, 52.0853523], [33.3123008, 52.1929451], [33.3028191, 52.3543926], [33.2314514, 52.36976], [33.230701, 52.2062825], [33.1580254, 52.0681585], [33.0795933, 51.9998987], [32.888742, 51.9032451], [32.7398468, 51.8140035], [32.7081769, 51.8889262], [32.7301496, 52.0733188], [32.6704551, 52.1454129], [32.649812, 52.1850216], [32.6749132, 52.2714057], [32.6580044, 52.2805055], [32.6369691, 52.2870816], [32.6227943, 52.296173], [32.6065534, 52.3048424], [32.5845807, 52.2317271], [32.5269026, 52.1584912], [32.5907605, 52.1230928], [32.5770276, 52.0796491], [32.5715345, 51.9846007], [32.5571149, 51.9173112], [32.4472516, 51.899096], [32.2577375, 51.8465273], [32.180587, 51.7902407], [32.0053953, 51.7932601], [31.9703984, 51.8395454], [31.939134, 51.8685798], [31.8732363, 51.8855308], [31.8668662, 51.89153], [31.8728555, 51.9165965], [31.8877979, 51.9369251], [31.855107, 51.9710037], [31.8704651, 52.0211548], [31.8361371, 52.0509446], [31.8182796, 52.0768975], [31.805753, 52.1002162], [31.7965484, 52.1035162], [31.7936941, 52.1082919], [31.7914183, 52.1089869], [31.7872089, 52.1117472], [31.7858279, 52.1123129], [31.7803188, 52.1117568], [31.772046, 52.111487], [31.7664871, 52.1091541], [31.7629235, 52.1061738], [31.7471597, 52.103134], [31.7595532, 52.0777308], [31.7650591, 52.002463], [31.7290018, 51.9973336], [31.6390455, 51.9558166], [31.6127748, 51.9763366], [31.5092687, 52.1208133], [31.4893394, 52.1167312], [31.4642469, 52.1217379], [31.4559635, 52.1305354], [31.4517973, 52.1401755], [31.4426893, 52.1395312], [31.466996, 52.0944026], [31.4721227, 52.0469215], [31.5174637, 51.9930397], [31.5872277, 51.9340342], [31.5640005, 51.8882633], [31.5722206, 51.8457098], [31.5474426, 51.8163168], [31.5068887, 51.7972208], [31.4060726, 51.7894134], [31.3156791, 51.7884094], [31.2399337, 51.7832538], [31.1296446, 51.8330784], [31.1964525, 51.9768721], [31.2133624, 52.0702862], [31.2007674, 52.0739628], [31.1854245, 52.0742614], [31.1588541, 52.0799184], [31.1460087, 52.0910586], [31.1400251, 52.102198], [31.0971526, 52.0894437], [31.0736649, 52.0914971], [31.0378211, 52.0842612], [31.0066637, 52.0812314], [30.9892438, 52.0756647], [30.9703623, 52.077454], [30.9552462, 52.0852463], [30.9483721, 52.0661309], [30.9579757, 52.0250628], [30.9770557, 51.9533126], [31.0194636, 51.7952997], [30.9367246, 51.754091], [30.8577619, 51.6421647], [30.8329034, 51.4789688], [30.7722772, 51.4838044], [30.7899221, 51.5291248], [30.7372596, 51.5444871], [30.7211212, 51.5325319], [30.6951124, 51.5342949], [30.6910811, 51.5181151], [30.7352639, 51.5113719], [30.7263355, 51.4155496], [30.6727789, 51.401416], [30.6562957, 51.3752824], [30.6356981, 51.3599543], [30.6590422, 51.3396956], [30.6823864, 51.3439852], [30.7077905, 51.3834254], [30.7888109, 51.3787117], [30.8670837, 51.3679958], [30.9288782, 51.3847104], [31.008174, 51.3779036], [31.1300527, 51.3126609], [31.3006588, 51.2675707], [31.4253734, 51.284159], [31.4623587, 51.3590807], [31.4059043, 51.3984205], [31.2779565, 51.3999811], [31.2510261, 51.372208], [31.2193132, 51.3787117], [31.2234319, 51.4181215], [31.1733055, 51.4534335], [31.1884121, 51.4799522], [31.1957834, 51.4951238], [31.1856643, 51.5050082], [31.1767382, 51.5301697], [31.1785404, 51.5406517], [31.1875551, 51.5519876], [31.2190646, 51.5580906], [31.2519498, 51.5631185], [31.268087, 51.5582079]], [[31.5721274, 51.5868668], [31.6217795, 51.5758118], [31.6930882, 51.5795364], [31.7654127, 51.5831878], [31.795625, 51.6147503], [31.8206737, 51.6426651], [31.8495156, 51.7054692], [31.9068616, 51.7633095], [31.9346632, 51.7836962], [31.9219678, 51.8125705], [31.8869489, 51.8304053], [31.8778992, 51.8451052], [31.7692264, 51.860205], [31.7708592, 51.7672804], [31.7038183, 51.7060804], [31.631066, 51.7068486], [31.5907881, 51.6867089], [31.5886442, 51.644774], [31.5721274, 51.5868668]]]}}, {"type": "Feature", "properties": {"name": "Liberated", "date": "2022-05-31", "layer_type": "liberated"}, "geometry": {"type": "Polygon", "coordinates": [[[36.1001464, 50.1355213], [36.0913054, 50.1279815], [36.0908339, 50.1179385], [36.091219, 50.1085555], [36.0949964, 50.0973255], [36.0953406, 50.093582], [36.0980875, 50.0868634], [36.1155963, 50.0841095], [36.1186857, 50.0870835], [36.1337922, 50.0831192], [36.1488982, 50.0857617], [36.1550777, 50.0925891], [36.1434051, 50.0999672], [36.1509578, 50.1027755], [36.1516447, 50.1069049], [36.1585112, 50.1183535], [36.1578256, 50.1310096], [36.1516455, 50.1379433], [36.1367095, 50.1485335], [36.144029, 50.1689719], [36.157359, 50.1963955], [36.1665769, 50.2013976], [36.1702863, 50.2027738], [36.1786307, 50.2021719], [36.1984721, 50.2032611], [36.218685, 50.1844612], [36.2655435, 50.1808675], [36.2588528, 50.2062865], [36.2825736, 50.232937], [36.2661534, 50.242309], [36.2366193, 50.2455451], [36.2101674, 50.2448241], [36.2087445, 50.2547696], [36.1902732, 50.2555733], [36.1579117, 50.25853], [36.1515241, 50.2348658], [36.1522629, 50.2304331], [36.1475222, 50.223522], [36.1429625, 50.219958], [36.1401217, 50.2137589], [36.1380711, 50.2077078], [36.1442597, 50.2031947], [36.1408445, 50.1908724], [36.1216697, 50.1552365], [36.1183425, 50.146857], [36.1140502, 50.1418227], [36.1075272, 50.1403094], [36.1001464, 50.1355213]]]}}, {"type": "Feature", "properties": {"name": "Liberated", "date": "2022-05-31", "layer_type": "liberated"}, "geometry": {"type": "Polygon", "coordinates": [[[33.3846845, 51.0805786], [33.8351239, 50.9527171], [34.368586, 50.9071299], [34.3947818, 50.877913], [34.3839918, 50.8458996], [34.36195, 50.8148383], [34.2597935, 50.8105446], [34.1478216, 50.8418477], [34.0547509, 50.8267965], [33.9624784, 50.8301872], [33.8946095, 50.8433942], [33.8582455, 50.8361827], [33.8349931, 50.8374684], [33.8077214, 50.8265131], [33.7619343, 50.8132558], [33.7400158, 50.8100485], [33.7079291, 50.8072944], [33.6678876, 50.7877267], [33.5738756, 50.7880942], [33.5502367, 50.7869127], [33.530736, 50.7538167], [33.5136703, 50.7328292], [33.508718, 50.7055178], [33.5035308, 50.6842219], [33.4982803, 50.6696469], [33.4670944, 50.6535432], [33.4609821, 50.6420073], [33.4720329, 50.6402686], [33.4779343, 50.6446255], [33.5102763, 50.6662856], [33.5120756, 50.6803266], [33.5277974, 50.7273318], [33.5247584, 50.7340038], [33.5689081, 50.7556824], [33.680385, 50.7777033], [33.7252819, 50.7971621], [33.740074, 50.7964263], [33.777608, 50.8069352], [33.8189056, 50.8155572], [33.8481345, 50.8218406], [33.8668609, 50.8174748], [33.95789, 50.8258121], [34.0178386, 50.8170929], [34.0598902, 50.8208368], [34.1388143, 50.8353894], [34.2718929, 50.8021065], [34.3135126, 50.8010392], [34.3563996, 50.8058988], [34.3761889, 50.8110153], [34.4157702, 50.8624306], [34.4113537, 50.8833462], [34.3899335, 50.907709], [34.6618451, 50.9059771], [34.6884766, 50.9522743], [34.7152202, 50.9720779], [34.7585406, 50.9662929], [34.7846331, 50.9792641], [34.9274554, 50.952453], [35.1279559, 50.9853161], [35.2433123, 50.9507227], [35.2968707, 50.998282], [35.2749101, 51.0585263], [35.2350726, 51.0345672], [35.0112261, 51.0198838], [34.8986163, 50.9870451], [34.8244586, 51.0051957], [34.8521521, 51.0758384], [34.9125498, 51.063583], [34.9851336, 51.0725499], [35.0139727, 51.11395], [35.1309861, 51.1570448], [35.1301713, 51.1573807], [35.1250647, 51.1613233], [35.1227474, 51.1655477], [35.1344359, 51.1708159], [35.1306813, 51.1735594], [35.1293292, 51.1828678], [34.9737227, 51.1154851], [34.9329485, 51.0880793], [34.7914996, 51.0949795], [34.6585522, 51.0007059], [34.3454119, 51.1580154], [34.3139551, 51.2388066], [34.3052358, 51.2383268], [34.2976104, 51.2423067], [34.2959734, 51.1537087], [34.2479082, 51.1795427], [34.2059125, 51.2132496], [34.005412, 51.2631177], [34.0050687, 51.4868559], [33.9576901, 51.7250289], [34.0775715, 51.7639218], [34.1241172, 51.7985062], [34.1953573, 51.8225918], [34.2539658, 51.8319923], [34.2844392, 51.840103], [34.3298896, 51.8686994], [34.328318, 51.8690579], [34.3297639, 51.8706701], [34.3278836, 51.8715239], [34.3264751, 51.8731124], [34.3261844, 51.8752043], [34.3255494, 51.8760836], [34.3251421, 51.8763304], [34.323968, 51.8766221], [34.3230084, 51.8769138], [34.321003, 51.8778939], [34.3194801, 51.8791481], [34.2603113, 51.8558775], [34.2437657, 51.8594066], [34.0321158, 51.7986607], [33.1775385, 51.4546756], [33.1236242, 51.3972327], [33.1303696, 51.356001], [33.1282209, 51.2772309], [33.1091962, 51.2644969], [33.1135219, 51.2491844], [33.1685148, 51.267325], [33.1807609, 51.2767234], [33.2211961, 51.3312062], [33.2998465, 51.4238093], [33.6231573, 51.6022871], [33.8492002, 51.684817], [33.8296308, 51.2424892], [33.2988487, 51.2089455], [33.4274557, 51.1539863], [33.3846845, 51.0805786]], [[34.5712079, 51.0002743], [34.4114609, 51.0665102], [34.3141544, 51.1336299], [34.2781206, 51.1114821], [34.2080828, 51.1605992], [34.189433, 51.1736605], [33.6483564, 51.1788262], [33.5000409, 51.1288667], [33.6565961, 51.0788531], [34.5712079, 51.0002743]]]}}, {"type": "Feature", "properties": {"name": "Liberated 25.03", "date": "2022-05-31", "layer_type": "liberated"}, "geometry": {"type": "Polygon", "coordinates": [[[34.9421552, 50.4905661], [34.9261542, 50.4897624], [34.9183964, 50.4736659], [34.9377178, 50.4712647], [34.9405573, 50.4542222], [34.9645728, 50.4521996], [34.9702457, 50.4608624], [34.9871018, 50.4580917], [34.9926542, 50.4634867], [34.9845042, 50.4742763], [34.9929186, 50.4801327], [34.9809991, 50.4949988], [34.9758543, 50.4987774], [34.9718927, 50.5016114], [34.9657647, 50.498264], [34.9465509, 50.4889912], [34.9421552, 50.4905661]]]}}, {"type": "Feature", "properties": {"name": "Liberated", "date": "2022-05-31", "layer_type": "liberated"}, "geometry": {"type": "Polygon", "coordinates": [[[31.0924658, 50.6528092], [31.1020192, 50.6605912], [31.1009621, 50.6701402], [31.1097042, 50.6790489], [31.1225703, 50.6883916], [31.1453982, 50.6862153], [31.1654139, 50.6688884], [31.1718108, 50.6554339], [31.1836942, 50.6341425], [31.1999893, 50.6325646], [31.1978566, 50.6418889], [31.1890025, 50.6733799], [31.1444812, 50.7162835], [31.1317146, 50.7188267], [31.1162025, 50.7094117], [31.0916973, 50.7218813], [31.0468653, 50.7445842], [31.0422291, 50.7400216], [31.1237275, 50.6980697], [31.1161331, 50.694264], [31.0857582, 50.6752035], [31.0856065, 50.6604923], [31.072263, 50.6642546], [31.0529616, 50.6699805], [31.0453366, 50.6613965], [31.0471541, 50.6542811], [31.0290295, 50.6482317], [31.0181944, 50.6452722], [31.0047754, 50.641526], [31.0019759, 50.637953], [30.9785467, 50.6321038], [30.9543732, 50.6264903], [30.9451698, 50.6274519], [30.9356968, 50.6271902], [30.9059439, 50.6346056], [30.8792298, 50.6407127], [30.8674516, 50.6329379], [30.8508742, 50.6162326], [30.8687111, 50.6102121], [30.8718904, 50.5876887], [30.8922316, 50.5682493], [30.9321357, 50.5838966], [30.9507252, 50.5991297], [30.9288014, 50.6213359], [30.9445927, 50.6209363], [30.9583301, 50.6198588], [30.9806523, 50.6265023], [31.0005744, 50.6149287], [31.0077911, 50.614136], [31.0208878, 50.6163245], [31.0249154, 50.617276], [31.029029, 50.6176282], [31.0286361, 50.6143861], [31.0275566, 50.6111439], [31.0323098, 50.6023259], [31.0372752, 50.5933783], [31.0446418, 50.5836135], [31.0290305, 50.581654], [31.0206307, 50.5808929], [31.0179817, 50.5796411], [31.0102809, 50.57899], [31.0046643, 50.5784505], [30.9997828, 50.5782428], [30.9946552, 50.5773909], [30.9909239, 50.5761225], [30.9924275, 50.5725115], [30.9993378, 50.5686823], [31.0046607, 50.5662432], [31.0091249, 50.5657665], [31.018094, 50.5713146], [31.0264418, 50.5761593], [31.0410562, 50.5778958], [31.051218, 50.5783729], [31.053054, 50.5740532], [31.050717, 50.5674302], [31.0462147, 50.5589811], [31.0529511, 50.5553672], [31.0757589, 50.544349], [31.0752173, 50.5383482], [31.0906072, 50.5291818], [31.1018124, 50.5250325], [31.1097795, 50.5312229], [31.1131128, 50.5421046], [31.1526047, 50.5573022], [31.1577321, 50.5505789], [31.1650278, 50.5522493], [31.1651149, 50.5586092], [31.1594543, 50.5687662], [31.1479545, 50.5780502], [31.1224774, 50.5937768], [31.1081469, 50.605032], [31.0797276, 50.6202035], [31.0495791, 50.6251293], [31.0416209, 50.6330156], [31.0446803, 50.6393541], [31.0626756, 50.6404655], [31.0713096, 50.6481256], [31.0924658, 50.6528092]], [[31.0374623, 50.6057019], [31.0439685, 50.6037188], [31.0458974, 50.606181], [31.0411313, 50.6100595], [31.035271, 50.613284], [31.0338738, 50.6093189], [31.0374623, 50.6057019]], [[31.0878088, 50.587683], [31.0829078, 50.5813402], [31.0727204, 50.5837084], [31.0638204, 50.5825332], [31.0577198, 50.5798255], [31.0571985, 50.5772813], [31.0667984, 50.5784062], [31.076041, 50.5765136], [31.0785612, 50.5737092], [31.0781932, 50.5713166], [31.0737825, 50.5698348], [31.0679986, 50.5704243], [31.0576661, 50.5697051], [31.0571189, 50.5646245], [31.0581526, 50.5597689], [31.0700003, 50.5542586], [31.0779023, 50.5551251], [31.08782, 50.5531282], [31.0967928, 50.5495489], [31.1049437, 50.5478418], [31.1130947, 50.5500608], [31.1286312, 50.5570776], [31.1354345, 50.5610117], [31.1253613, 50.5791463], [31.1129947, 50.5895946], [31.0952974, 50.5994821], [31.0799961, 50.610239], [31.0658681, 50.6136654], [31.0446225, 50.6208636], [31.0383024, 50.6246093], [31.033769, 50.6256652], [31.0342999, 50.6192611], [31.0391697, 50.6136831], [31.0863871, 50.5884784], [31.0878088, 50.587683]]]}}, {"type": "Feature", "properties": {"name": "Liberated", "date": "2022-05-31", "layer_type": "liberated"}, "geometry": {"type": "Polygon", "coordinates": [[[32.1450135, 46.9394648], [32.1667259, 46.9442446], [32.1574443, 46.9968772], [32.1886936, 47.0354583], [32.197495, 47.0458116], [32.1943212, 47.0603062], [32.1654778, 47.0488761], [32.1679233, 47.0416568], [32.1402026, 47.0238216], [32.1148387, 47.0424534], [32.0379398, 47.0496953], [32.1496915, 47.2099305], [32.1164409, 47.3518149], [32.1214762, 47.3600138], [32.2212871, 47.3737682], [32.2279306, 47.3860019], [32.2071085, 47.3954465], [32.1160203, 47.378979], [32.0941552, 47.3600156], [32.1361222, 47.2129322], [32.0108799, 47.0509256], [32.01854, 47.0331691], [32.0458355, 47.0375104], [32.1090069, 47.0262782], [32.1450135, 46.9394648]]]}}, {"type": "Feature", "properties": {"name": "Liberated 16.03-17.03", "date": "2022-05-31", "layer_type": "liberated"}, "geometry": {"type": "Polygon", "coordinates": [[[32.0108799, 47.0509256], [31.9721266, 47.0486983], [31.8842345, 47.2066047], [31.8114488, 47.3082011], [31.7458133, 47.3418199], [31.6938581, 47.35726], [31.6472426, 47.3676429], [31.6209096, 47.3879298], [31.5825649, 47.419186], [31.5381529, 47.463163], [31.5021585, 47.473077], [31.4779632, 47.4738501], [31.455901, 47.4895457], [31.4417684, 47.504583], [31.4257691, 47.5225357], [31.4139875, 47.5335971], [31.4102426, 47.5400549], [31.3922326, 47.5484978], [31.3764516, 47.5483638], [31.3734534, 47.536569], [31.3739971, 47.536372], [31.3764935, 47.5363197], [31.3795155, 47.5356058], [31.38228, 47.5343704], [31.387551, 47.5317254], [31.3898531, 47.531303], [31.4002077, 47.5304003], [31.4018547, 47.5301588], [31.4080075, 47.5261501], [31.4140782, 47.5182866], [31.4172291, 47.5087998], [31.4363374, 47.4826727], [31.471083, 47.4619563], [31.5240464, 47.4543793], [31.5338828, 47.4393662], [31.5461137, 47.4243503], [31.5849687, 47.4008128], [31.6062878, 47.3772674], [31.6323937, 47.3565055], [31.6936538, 47.345625], [31.7354126, 47.3136465], [31.7784892, 47.2765314], [31.8856078, 47.148729], [31.8183154, 47.1150948], [31.8485283, 47.0795689], [31.921314, 47.0879851], [31.9460337, 47.0430835], [31.9776199, 47.0252996], [32.01854, 47.0331691], [32.0108799, 47.0509256]]]}}, {"type": "Feature", "properties": {"name": "Liberated 16.03-17.03", "date": "2022-05-31", "layer_type": "liberated"}, "geometry": {"type": "Polygon", "coordinates": [[[32.2435333, 46.7860604], [32.3071007, 46.8007768], [32.363919, 46.8318811], [32.3613704, 46.8561673], [32.3569155, 46.8668509], [32.3541856, 46.8798796], [32.3614708, 46.8964354], [32.4060385, 46.8975883], [32.422727, 46.9589532], [32.3879391, 46.9635098], [32.3790345, 46.987997], [32.3748797, 46.9953879], [32.1667259, 46.9442446], [32.1450135, 46.9394648], [32.1450136, 46.9394355], [32.1172125, 46.9331485], [32.1161825, 46.9353756], [32.1041662, 46.9470957], [32.0954115, 46.9492051], [32.0859701, 46.9490879], [32.077902, 46.9462754], [32.0686323, 46.9402984], [32.0617658, 46.9338518], [32.0581609, 46.928694], [32.0670873, 46.9201356], [32.082155, 46.9110796], [32.0919395, 46.8801121], [32.0557191, 46.8653259], [32.070139, 46.8608667], [32.0859314, 46.862509], [32.112378, 46.8306901], [32.1470354, 46.8115463], [32.1539092, 46.80802], [32.1864469, 46.7969531], [32.2435333, 46.7860604]]]}}, {"type": "Feature", "properties": {"name": "Liberated 23.03", "date": "2022-05-31", "layer_type": "liberated"}, "geometry": {"type": "Polygon", "coordinates": [[[32.366586, 47.0474521], [32.3703625, 47.0205426], [32.3760272, 47.0025175], [32.3748797, 46.9954172], [32.3790345, 46.987997], [32.3879391, 46.9635098], [32.422727, 46.9589532], [32.4766195, 46.9849547], [32.4873482, 46.998303], [32.4853152, 47.0048736], [32.4818694, 47.0086355], [32.4785949, 47.0093539], [32.4729895, 47.0120187], [32.4700159, 47.0229662], [32.4667372, 47.0330282], [32.4585676, 47.0380601], [32.4541448, 47.0501117], [32.4511127, 47.0673645], [32.4612704, 47.0748221], [32.460273, 47.083916], [32.4634263, 47.0914955], [32.4638335, 47.1000099], [32.444864, 47.1050576], [32.4370925, 47.152896], [32.4603979, 47.1572919], [32.4634004, 47.1703181], [32.4661906, 47.1743224], [32.4626293, 47.1785602], [32.4501623, 47.1804443], [32.4441865, 47.1791682], [32.4391391, 47.1768963], [32.4345559, 47.1750599], [32.4292868, 47.1722889], [32.4227113, 47.1705146], [32.4159907, 47.1693933], [32.4007859, 47.1712828], [32.3731349, 47.1715359], [32.3712772, 47.1793832], [32.3696772, 47.1875806], [32.3626276, 47.189749], [32.3607683, 47.1892848], [32.3593239, 47.1880027], [32.3572286, 47.1864868], [32.3483545, 47.1737705], [32.3507339, 47.1632142], [32.3524263, 47.1520744], [32.3597431, 47.1040317], [32.3660695, 47.0672693], [32.366586, 47.0474521]]]}}, {"type": "Feature", "properties": {"name": "Liberated 26.03", "date": "2022-05-31", "layer_type": "liberated"}, "geometry": {"type": "Polygon", "coordinates": [[[34.9758543, 50.4987774], [34.9779143, 50.5159721], [34.9713912, 50.5292869], [34.9662413, 50.5399797], [34.9789443, 50.5604856], [34.9772276, 50.5801105], [34.9737944, 50.5992914], [34.993101, 50.5988866], [35.0102569, 50.6004032], [35.0106002, 50.6112977], [34.9984123, 50.6164173], [34.9928333, 50.6236055], [34.991975, 50.6286148], [34.9906017, 50.6372709], [34.9884561, 50.6411357], [34.9814178, 50.643313], [34.964595, 50.6404826], [34.9549819, 50.6328614], [34.9451948, 50.6208281], [34.9302627, 50.6146745], [34.9359275, 50.6031271], [34.9604751, 50.5990957], [34.9611617, 50.5681406], [34.951892, 50.548947], [34.9484588, 50.5380381], [34.9553253, 50.5245075], [34.9618484, 50.510318], [34.9657647, 50.498264], [34.9718927, 50.5016114], [34.9758543, 50.4987774]]]}}, {"type": "Feature", "properties": {"name": "Liberated", "date": "2022-05-31", "layer_type": "liberated"}, "geometry": {"type": "Polygon", "coordinates": [[[36.4057153, 50.0689237], [36.3790648, 50.0762503], [36.3433079, 50.0860841], [36.3297981, 50.075727], [36.3437026, 50.0654803], [36.3540023, 50.0585377], [36.3624137, 50.0497204], [36.3673921, 50.0447048], [36.4057153, 50.0689237]]]}}, {"type": "Feature", "properties": {"name": "Liberated 31.03 - 02.04", "date": "2022-05-31", "layer_type": "liberated"}, "geometry": {"type": "Polygon", "coordinates": [[[30.283456, 50.6252003], [30.2952488, 50.7046519], [30.3374079, 50.7191435], [30.3575516, 50.724753], [30.3774412, 50.7271528], [30.3806055, 50.7320823], [30.3779821, 50.7366114], [30.375788, 50.741792], [30.3734645, 50.7438631], [30.3690809, 50.7435443], [30.3667505, 50.7503474], [30.3684002, 50.7526314], [30.3824111, 50.7587158], [30.381592, 50.7608489], [30.3771678, 50.763525], [30.3739835, 50.7685512], [30.3728588, 50.7724374], [30.3739272, 50.7753033], [30.3760258, 50.777735], [30.3713722, 50.7808399], [30.3687018, 50.7835863], [30.367667, 50.7851494], [30.3676621, 50.7873636], [30.3759497, 50.7923264], [30.3752446, 50.7940754], [30.3734329, 50.7943531], [30.3739861, 50.7963908], [30.3765136, 50.7988082], [30.3805951, 50.8066077], [30.3815875, 50.8142987], [30.3885573, 50.818192], [30.3891247, 50.822904], [30.3922674, 50.8281582], [30.4010434, 50.8336507], [30.4060443, 50.838167], [30.408579, 50.8426202], [30.4074434, 50.8461476], [30.4108568, 50.8502171], [30.4159744, 50.8532524], [30.4231531, 50.8565582], [30.4257415, 50.863738], [30.4242036, 50.8675992], [30.4260093, 50.873484], [30.4205608, 50.8774013], [30.4183735, 50.8801814], [30.4196059, 50.8825434], [30.4457311, 50.8870698], [30.4420262, 50.9072246], [30.4501309, 50.9121063], [30.4554908, 50.9195852], [30.4479069, 50.9456502], [30.4324209, 50.9658688], [30.4440246, 50.9842484], [30.4253345, 50.9903117], [30.4092159, 51.0244934], [30.3908798, 51.0284246], [30.3780371, 51.0235002], [30.3708931, 51.0194806], [30.3614082, 51.0265564], [30.3489602, 51.0286116], [30.3326421, 51.0337969], [30.3151061, 51.0378997], [30.29857, 51.0389738], [30.3015983, 51.0415143], [30.2915797, 51.0472927], [30.2990091, 51.0534533], [30.3197076, 51.053903], [30.3405032, 51.0418485], [30.3786746, 51.055934], [30.3779373, 51.0652803], [30.4074401, 51.0666119], [30.4081246, 51.0743948], [30.4060648, 51.0813075], [30.4299378, 51.1149634], [30.4273163, 51.1224539], [30.4337322, 51.1217818], [30.4353951, 51.1171351], [30.4408604, 51.1153501], [30.438443, 51.1127328], [30.4348304, 51.1116397], [30.4362852, 51.107429], [30.4363251, 51.1012271], [30.4490467, 51.104485], [30.4481997, 51.1085922], [30.4567032, 51.1122627], [30.4657625, 51.1157141], [30.4742412, 51.11453], [30.4766779, 51.1219655], [30.4842657, 51.1261684], [30.4800294, 51.1532323], [30.4779369, 51.1544542], [30.4617679, 51.154168], [30.4540919, 51.1640008], [30.4471629, 51.1691326], [30.450736, 51.1738511], [30.4508763, 51.1779239], [30.4404397, 51.1823539], [30.4310317, 51.1842005], [30.4183914, 51.1937027], [30.4111211, 51.1933418], [30.400419, 51.1867403], [30.3962849, 51.1902259], [30.3935236, 51.1937114], [30.392463, 51.2071368], [30.3716551, 51.2080847], [30.3619367, 51.2153316], [30.3495232, 51.2162661], [30.3429462, 51.2164468], [30.3384933, 51.2201692], [30.3306065, 51.2206657], [30.3223849, 51.2246686], [30.316239, 51.2305237], [30.3303832, 51.2452452], [30.3561334, 51.2521074], [30.3616272, 51.2460776], [30.3729543, 51.2481129], [30.3786185, 51.2469552], [30.3769007, 51.2384902], [30.3891722, 51.2383953], [30.3947495, 51.2413091], [30.4113123, 51.2387407], [30.4163307, 51.2321892], [30.423064, 51.2272497], [30.4312774, 51.2329529], [30.4496342, 51.2297835], [30.455938, 51.2322145], [30.4656773, 51.2428136], [30.4727796, 51.2397826], [30.4737012, 51.2337422], [30.4811441, 51.2200678], [30.4989695, 51.2150904], [30.5143891, 51.2131213], [30.5038618, 51.2246673], [30.5071556, 51.2308399], [30.5156006, 51.2359372], [30.5328452, 51.2650453], [30.5051977, 51.2789149], [30.4748029, 51.2754291], [30.4634687, 51.2726097], [30.452051, 51.273079], [30.4512759, 51.2769844], [30.4537828, 51.2791298], [30.4500585, 51.2814376], [30.4534316, 51.2878527], [30.4569213, 51.2862295], [30.4632154, 51.2906783], [30.4620716, 51.294191], [30.4576371, 51.2966452], [30.4617855, 51.3059688], [30.4448787, 51.3087186], [30.4211408, 51.3041874], [30.4102701, 51.3083368], [30.398539, 51.3122704], [30.3909189, 51.3218353], [30.3659892, 51.3341261], [30.3482824, 51.3487405], [30.3346178, 51.3515437], [30.3233531, 51.3614211], [30.3557051, 51.378437], [30.3561351, 51.3828066], [30.3441285, 51.4232642], [30.3345044, 51.4247564], [30.3307267, 51.4286886], [30.3255752, 51.4309082], [30.321453, 51.433984], [30.3187033, 51.4402702], [30.311535, 51.4428779], [30.3088292, 51.4465554], [30.2982648, 51.4562633], [30.29178, 51.4590308], [30.2880411, 51.4632954], [30.2795323, 51.4647653], [30.2450593, 51.4861327], [30.2139455, 51.4924315], [30.1804182, 51.5124029], [30.167316, 51.5087531], [30.1629981, 51.4880114], [30.1443643, 51.4945249], [30.1315609, 51.505525], [30.1206263, 51.5044314], [30.1290643, 51.4876375], [30.1224787, 51.4898223], [30.121244, 51.4861034], [30.110844, 51.4870225], [30.1042691, 51.4909003], [30.0776333, 51.4968994], [30.0746035, 51.4956717], [30.0623035, 51.4989321], [30.0559001, 51.4971165], [30.0337029, 51.503207], [30.0274094, 51.502618], [30.0190557, 51.504593], [30.012425, 51.5046374], [30.012184, 51.5026446], [30.0142604, 51.4995298], [30.0152348, 51.4972379], [30.0161511, 51.4960118], [30.0182689, 51.4953735], [30.0130056, 51.4949759], [30.0122058, 51.4894482], [30.0075453, 51.4897987], [30.0034189, 51.4882828], [30.0008378, 51.485591], [29.9902753, 51.4812953], [29.9819049, 51.4857213], [29.9753163, 51.4834442], [29.9711315, 51.4803116], [29.9705387, 51.4752129], [29.9668968, 51.4719679], [29.9619869, 51.4712535], [29.9515496, 51.4735153], [29.9465012, 51.4836256], [29.9237179, 51.4897486], [29.9251999, 51.4870363], [29.9212205, 51.4880318], [29.9186299, 51.486926], [29.9170772, 51.4884039], [29.9145842, 51.487005], [29.910162, 51.4854503], [29.9062345, 51.4866503], [29.9039273, 51.485059], [29.8907197, 51.4836813], [29.8894211, 51.4828072], [29.8891526, 51.4789397], [29.8866534, 51.4772111], [29.8842886, 51.4773627], [29.882935, 51.4767434], [29.8844042, 51.4748835], [29.8878854, 51.4739539], [29.8903122, 51.4727409], [29.8894654, 51.471012], [29.8864675, 51.4708962], [29.8873722, 51.467844], [29.8853358, 51.4662114], [29.8857771, 51.4637375], [29.8756983, 51.4565647], [29.8765827, 51.4521758], [29.8779693, 51.4501954], [29.8777185, 51.4451933], [29.8738169, 51.4442435], [29.865023, 51.4462356], [29.8556282, 51.4487063], [29.8479246, 51.4489232], [29.843128, 51.4572132], [29.8128301, 51.4486812], [29.8104728, 51.459011], [29.7910083, 51.4573834], [29.7939795, 51.4414294], [29.7793333, 51.4467181], [29.7641972, 51.4492008], [29.7390326, 51.4589453], [29.7420183, 51.4615221], [29.7334563, 51.469393], [29.7308885, 51.4797458], [29.725484, 51.4917656], [29.7447532, 51.4935026], [29.7421064, 51.5022986], [29.7353378, 51.5108808], [29.7423866, 51.5127869], [29.737672, 51.5307764], [29.7075248, 51.5278397], [29.7074775, 51.5204913], [29.7046247, 51.5203425], [29.6951566, 51.5169673], [29.6874058, 51.5169029], [29.6833483, 51.5136318], [29.671622, 51.5111412], [29.6697084, 51.5082387], [29.669439, 51.5026202], [29.6657677, 51.5027117], [29.6533411, 51.5061152], [29.6506895, 51.5052253], [29.6482099, 51.5015572], [29.6485632, 51.5009342], [29.6398135, 51.4985388], [29.6340655, 51.5060497], [29.6274587, 51.5021268], [29.6208547, 51.4926485], [29.605927, 51.493803], [29.6050021, 51.4722246], [29.5923243, 51.4666536], [29.5873959, 51.4644987], [29.5834977, 51.462504], [29.5775044, 51.4612148], [29.5755442, 51.4613576], [29.5397972, 51.4835666], [29.5342775, 51.4677085], [29.5287837, 51.4589257], [29.516431, 51.4434088], [29.5233128, 51.4339365], [29.5205784, 51.421924], [29.5096055, 51.4206274], [29.5006871, 51.3968482], [29.4591608, 51.4029463], [29.426546, 51.4137398], [29.4036637, 51.4109863], [29.3891359, 51.4048959], [29.3736346, 51.3982087], [29.3660329, 51.3898065], [29.3233157, 51.3799284], [29.2311779, 51.3777255], [29.1280718, 51.3269426], [29.1876314, 51.2560175], [29.302118, 51.3043836], [29.4387825, 51.151168], [29.4797742, 51.0159434], [29.4272101, 50.9734048], [29.5578727, 50.8294046], [29.5760865, 50.8323912], [29.5675247, 50.8629122], [29.7630052, 50.9094953], [29.7172204, 50.7224799], [29.7497192, 50.6168984], [29.7444382, 50.5662128], [29.7675787, 50.5350431], [29.8154374, 50.4974999], [29.7857021, 50.4504858], [29.8552639, 50.4483963], [29.914295, 50.3686281], [29.9502327, 50.3722871], [29.9913613, 50.3965421], [30.0511278, 50.4193304], [30.1073449, 50.4097297], [30.2064692, 50.4138607], [30.2727508, 50.5276007], [30.2959194, 50.552647], [30.3039937, 50.5647224], [30.3306249, 50.6057465], [30.2868637, 50.6226811], [30.283456, 50.6252003]]]}}, {"type": "Feature", "properties": {"name": "Liberated 25.03", "date": "2022-05-31", "layer_type": "liberated"}, "geometry": {"type": "Polygon", "coordinates": [[[34.9645728, 50.4521996], [34.9405573, 50.4542222], [34.9272474, 50.4088604], [34.9235184, 50.3994141], [34.9167019, 50.3929221], [34.917234, 50.3888645], [34.9211972, 50.3652135], [34.9227177, 50.3564372], [34.9164462, 50.3445287], [34.9414146, 50.3433546], [34.934202, 50.330282], [34.9369486, 50.3175688], [34.9431284, 50.3077028], [35.0375421, 50.3085798], [35.0687845, 50.3206378], [35.0989969, 50.3256794], [35.1776178, 50.3320353], [35.1761318, 50.343452], [35.1432855, 50.3414581], [35.1165064, 50.3703721], [35.041662, 50.3664303], [35.0145395, 50.3775978], [34.9771173, 50.3729998], [34.9478402, 50.357578], [34.9383898, 50.3615209], [34.9352567, 50.3715888], [34.9323967, 50.386904], [34.9262858, 50.391396], [34.9309799, 50.3942975], [34.9348167, 50.4016854], [34.9387405, 50.4072129], [34.9371714, 50.4138344], [34.9374157, 50.4206294], [34.9422953, 50.4309244], [34.9493128, 50.4439678], [34.9645728, 50.4521996]]]}}, {"type": "Feature", "properties": {"name": "Liberated", "date": "2022-05-31", "layer_type": "liberated"}, "geometry": {"type": "Polygon", "coordinates": [[[32.4649078, 47.0749148], [32.4612704, 47.0748221], [32.4511127, 47.0673645], [32.4541448, 47.0501117], [32.5120883, 47.0602272], [32.532001, 47.0197503], [32.5714832, 47.0270056], [32.5601535, 47.0665416], [32.6367145, 47.0758949], [32.6390792, 47.0656636], [32.6531848, 47.0665], [32.6695335, 47.0668527], [32.6843018, 47.0677064], [32.6858281, 47.0678403], [32.6952602, 47.0677757], [32.694736, 47.0957653], [32.6820346, 47.1046466], [32.6672702, 47.1079176], [32.6607462, 47.0998551], [32.6600598, 47.0960574], [32.6535373, 47.0948304], [32.4649078, 47.0749148]]]}}, {"type": "Feature", "properties": {"name": "Liberated 27-31.03", "date": "2022-05-31", "layer_type": "liberated"}, "geometry": {"type": "Polygon", "coordinates": [[[31.3341908, 50.5042485], [31.339066, 50.5091333], [31.3545522, 50.5152863], [31.3708812, 50.5195609], [31.3844114, 50.5315178], [31.389737, 50.5267449], [31.3990955, 50.5248906], [31.4022022, 50.5240484], [31.4056521, 50.522715], [31.4074878, 50.5208393], [31.4080573, 50.5198501], [31.4095008, 50.5187279], [31.4121536, 50.5178666], [31.4137804, 50.5177361], [31.4146777, 50.5189699], [31.4154654, 50.5195908], [31.4162026, 50.5205834], [31.4171291, 50.5213798], [31.4236345, 50.5195567], [31.4287919, 50.5176432], [31.4310271, 50.5163316], [31.4311165, 50.5152929], [31.4308658, 50.5125877], [31.4321994, 50.5100343], [31.4397124, 50.5070441], [31.4443092, 50.5067903], [31.4483236, 50.5068812], [31.4952426, 50.4867672], [31.5036534, 50.4838346], [31.5124069, 50.4837412], [31.5204722, 50.4847557], [31.5297361, 50.4856914], [31.537278, 50.4873432], [31.5388451, 50.4910993], [31.5398007, 50.4946154], [31.5386975, 50.498568], [31.5368199, 50.5011755], [31.5336472, 50.5029158], [31.52854, 50.5014924], [31.5250843, 50.4999055], [31.5215986, 50.4972544], [31.5184836, 50.4950538], [31.517442, 50.4941706], [31.5150331, 50.496731], [31.5153717, 50.4992673], [31.5167411, 50.501737], [31.518111, 50.5040644], [31.5165631, 50.5061022], [31.5138134, 50.5062475], [31.5119232, 50.5051185], [31.5104635, 50.5035708], [31.5087903, 50.5021958], [31.5059802, 50.5019444], [31.5021716, 50.5024185], [31.4989789, 50.5017812], [31.4965242, 50.500479], [31.4939238, 50.4990083], [31.4909932, 50.4973439], [31.4898716, 50.4950366], [31.487681, 50.4950288], [31.4848262, 50.4964167], [31.4532604, 50.5123491], [31.449152, 50.5161063], [31.446107, 50.5169142], [31.4423524, 50.5172633], [31.4392731, 50.5170009], [31.4373041, 50.5168693], [31.4356635, 50.5166074], [31.4264694, 50.5203837], [31.4247322, 50.5218241], [31.4246244, 50.5232637], [31.4246561, 50.5250204], [31.4229551, 50.5260625], [31.4203019, 50.5263106], [31.4171727, 50.5254523], [31.4143207, 50.5254595], [31.4123796, 50.5255721], [31.4112374, 50.5249736], [31.4115246, 50.5240467], [31.4113678, 50.5233923], [31.4100879, 50.5233378], [31.4087612, 50.5233106], [31.4008452, 50.5260252], [31.3922089, 50.5279007], [31.3866192, 50.5324496], [31.4479731, 50.5480051], [31.469163, 50.5538803], [31.482459, 50.5565899], [31.4860174, 50.5542901], [31.4885456, 50.5526446], [31.4943351, 50.5509443], [31.5010063, 50.5503121], [31.5073342, 50.5516428], [31.514823, 50.5528064], [31.5208766, 50.5536036], [31.5281786, 50.5532306], [31.5348893, 50.5544441], [31.5404172, 50.5553411], [31.5452983, 50.5577869], [31.5488857, 50.5602775], [31.549819, 50.5633903], [31.5450862, 50.5670472], [31.5393962, 50.569781], [31.5348812, 50.5730674], [31.5339188, 50.577133], [31.5408027, 50.6204537], [31.4526187, 50.7350317], [31.5304251, 50.7383992], [31.6633791, 50.6073872], [31.6739599, 50.610871], [31.6932418, 50.6188508], [31.5670762, 50.7742251], [31.4306607, 50.7683354], [31.4035643, 50.82429], [31.3495456, 50.8705835], [31.2872012, 50.8778494], [31.2491831, 50.8682719], [31.242443, 50.8529914], [31.3276928, 50.8437663], [31.3539429, 50.8018928], [31.3521689, 50.7579231], [31.1444812, 50.7162835], [31.1890025, 50.6733799], [31.4048466, 50.7178037], [31.4996172, 50.588811], [31.4920152, 50.5866032], [31.487676, 50.5826521], [31.4868946, 50.577802], [31.4856759, 50.5743159], [31.4832395, 50.5759586], [31.468769, 50.5868715], [31.4548571, 50.5955264], [31.4349428, 50.5979596], [31.4072921, 50.599738], [31.3981485, 50.5995574], [31.3907212, 50.6074391], [31.3897703, 50.6109999], [31.3917509, 50.6248982], [31.3432843, 50.6373545], [31.3373795, 50.6424009], [31.3289969, 50.649444], [31.3184043, 50.6552551], [31.3061377, 50.6594734], [31.2960201, 50.6596352], [31.289388, 50.6456007], [31.2937514, 50.6300175], [31.3299147, 50.6300655], [31.3545172, 50.625511], [31.3756808, 50.6183383], [31.3682161, 50.6035725], [31.3676808, 50.5975929], [31.3681757, 50.592812], [31.370195, 50.5889169], [31.3788265, 50.5865567], [31.3863185, 50.5886992], [31.3940133, 50.5902056], [31.3999209, 50.5923748], [31.4116297, 50.5932409], [31.4267537, 50.5935644], [31.4406749, 50.5898548], [31.4791442, 50.5679644], [31.4740034, 50.5670036], [31.3355689, 50.5195952], [31.3217975, 50.5092733], [31.311313, 50.5019269], [31.2850392, 50.5000368], [31.2815837, 50.5071743], [31.2626538, 50.5124913], [31.2531619, 50.5163311], [31.2476432, 50.5162313], [31.2410947, 50.5146031], [31.2368809, 50.5067756], [31.2293683, 50.4996958], [31.2146476, 50.4998213], [31.2074944, 50.4891624], [31.2136682, 50.4843007], [31.2362935, 50.4835908], [31.2621808, 50.4844042], [31.2760524, 50.4895258], [31.301253, 50.4931115], [31.3308395, 50.4967956], [31.3534416, 50.4990186], [31.3628686, 50.4952893], [31.370407, 50.4918866], [31.3707202, 50.4892308], [31.3668834, 50.4874143], [31.3612699, 50.484874], [31.356223, 50.4832887], [31.3523095, 50.4803368], [31.3462002, 50.476618], [31.3415361, 50.4726763], [31.3380456, 50.4693819], [31.3386179, 50.4660714], [31.3420185, 50.462243], [31.3473232, 50.4616944], [31.3521986, 50.46273], [31.3578439, 50.4646629], [31.3607426, 50.4658307], [31.3651009, 50.4660696], [31.3669367, 50.4639489], [31.3694852, 50.4611947], [31.3730635, 50.4610084], [31.3741689, 50.4626802], [31.3751509, 50.4654012], [31.3755325, 50.4676851], [31.3749058, 50.4698451], [31.373906, 50.4715261], [31.3720328, 50.4736777], [31.3705814, 50.4752998], [31.3689976, 50.4780227], [31.370566, 50.4812138], [31.377187, 50.4857583], [31.3798111, 50.4886854], [31.3802295, 50.4935267], [31.3805408, 50.4984363], [31.3659043, 50.505457], [31.3532233, 50.5050163], [31.3341908, 50.5042485]]]}}, {"type": "Feature", "properties": {"name": "Liberated 26.03-31.03", "date": "2022-05-31", "layer_type": "liberated"}, "geometry": {"type": "Polygon", "coordinates": [[[36.5551515, 47.6727899], [36.5460223, 47.674954], [36.5121678, 47.6877476], [36.4941161, 47.6930595], [36.4943452, 47.7001039], [36.4981495, 47.7103794], [36.5091636, 47.7119921], [36.5057589, 47.7215742], [36.4908498, 47.7268681], [36.484524, 47.7207865], [36.4754509, 47.723279], [36.4727286, 47.7269837], [36.4661463, 47.7250577], [36.4612812, 47.7220921], [36.4714366, 47.714854], [36.4843356, 47.7088853], [36.4825898, 47.6962557], [36.4732921, 47.6974895], [36.4052703, 47.6904701], [36.4027763, 47.6956102], [36.4005331, 47.6982632], [36.3936447, 47.6975586], [36.3898268, 47.6952239], [36.3873441, 47.6921713], [36.3823817, 47.6897616], [36.3752066, 47.6881746], [36.3402703, 47.6835955], [36.3277293, 47.6878332], [36.3199137, 47.6886797], [36.3107357, 47.687543], [36.308291, 47.6848526], [36.3115108, 47.6811221], [36.3143446, 47.6781688], [36.3186379, 47.6743428], [36.3808378, 47.6801962], [36.3848387, 47.661069], [36.379451, 47.6605004], [36.3748549, 47.6591333], [36.3735575, 47.6563998], [36.3764534, 47.6532446], [36.381899, 47.6504016], [36.3893557, 47.650495], [36.4002608, 47.6533323], [36.4022818, 47.6559053], [36.4020917, 47.6596195], [36.3995947, 47.6621703], [36.394914, 47.6633305], [36.3937757, 47.6662236], [36.3940661, 47.6696354], [36.4065723, 47.6699539], [36.41231, 47.6717293], [36.4148359, 47.6748122], [36.4160996, 47.6773933], [36.4167322, 47.6803015], [36.4175643, 47.6832576], [36.4214144, 47.6849663], [36.4324375, 47.6860511], [36.4412097, 47.6876321], [36.4510881, 47.6885371], [36.4563696, 47.682864], [36.4598672, 47.6773694], [36.4614435, 47.6740442], [36.459828, 47.6709946], [36.4586768, 47.6675048], [36.4608474, 47.6642571], [36.4698288, 47.6640204], [36.4764064, 47.6648236], [36.4847347, 47.6658497], [36.4901447, 47.6676836], [36.4898722, 47.6733825], [36.4892212, 47.6791216], [36.4880376, 47.6845337], [36.488991, 47.6886262], [36.494961, 47.6878991], [36.5005874, 47.6862472], [36.5110591, 47.6833837], [36.5301126, 47.6756636], [36.538214, 47.6689171], [36.5551515, 47.6727899]]]}}, {"type": "Feature", "properties": {"name": "Liberated", "date": "2022-05-31", "layer_type": "liberated"}, "geometry": {"type": "Polygon", "coordinates": [[[33.8760196, 47.4813189], [33.8355409, 47.4341268], [33.8441039, 47.4091809], [33.8695023, 47.3893272], [33.9600507, 47.4095159], [33.9359577, 47.4867106], [33.9376743, 47.4889145], [33.936816, 47.4903065], [33.9357861, 47.4930903], [33.9333828, 47.4959899], [33.9309795, 47.4986574], [33.9304646, 47.5019046], [33.9299496, 47.5043399], [33.9280613, 47.507007], [33.9284046, 47.509558], [33.9301212, 47.5122248], [33.9289196, 47.5168624], [33.926688, 47.5197607], [33.9235981, 47.519297], [33.9148434, 47.5182536], [33.905917, 47.517558], [33.8945873, 47.515819], [33.8854893, 47.5114132], [33.8808544, 47.5017887], [33.8760196, 47.4813189]]]}}, {"type": "Feature", "properties": {"name": "Liberated 27-29.03", "date": "2022-05-31", "layer_type": "liberated"}, "geometry": {"type": "Polygon", "coordinates": [[[36.8054894, 49.3628992], [36.7960234, 49.3648618], [36.7834682, 49.359892], [36.8050793, 49.3488407], [36.8020763, 49.3166269], [36.8022911, 49.2759377], [36.8108945, 49.269411], [36.8293114, 49.2550915], [36.8445597, 49.2459082], [36.8512223, 49.2432235], [36.861665, 49.2415651], [36.8722787, 49.2394013], [36.8798983, 49.2375999], [36.8815953, 49.2359104], [36.885332, 49.2315225], [36.8858069, 49.2303572], [36.8862818, 49.2262774], [36.893328, 49.2166276], [36.8988341, 49.2091007], [36.9050344, 49.1985333], [36.9043866, 49.1913081], [36.8916801, 49.181303], [36.8820652, 49.1836391], [36.8624916, 49.1887567], [36.8642985, 49.1815468], [36.8731424, 49.1770298], [36.8726279, 49.1711672], [36.881125, 49.1646447], [36.8872605, 49.158016], [36.8979885, 49.1555623], [36.9085214, 49.1619891], [36.9151711, 49.1703562], [36.9215133, 49.1917617], [36.9222609, 49.1951124], [36.9245537, 49.1975657], [36.9231312, 49.2026968], [36.9169008, 49.2064836], [36.9091492, 49.2069192], [36.9020105, 49.2157716], [36.8955214, 49.2240103], [36.8890148, 49.2367608], [36.886627, 49.2399839], [36.8572864, 49.2459456], [36.836741, 49.2572399], [36.807866, 49.2789323], [36.810817, 49.2892255], [36.8127386, 49.2989589], [36.8129438, 49.3083564], [36.8107457, 49.3174182], [36.8127171, 49.3373359], [36.8142203, 49.3499213], [36.8312476, 49.3479793], [36.8355723, 49.3506781], [36.8380415, 49.3529439], [36.8394802, 49.3547962], [36.8703958, 49.3749831], [36.861751, 49.3795729], [36.8373044, 49.3951195], [36.8256563, 49.4074254], [36.8248687, 49.3904051], [36.8209657, 49.3813117], [36.8139302, 49.3653012], [36.8054894, 49.3628992]]]}}, {"type": "Feature", "properties": {"name": "Liberated 30.03", "date": "2022-05-31", "layer_type": "liberated"}, "geometry": {"type": "Polygon", "coordinates": [[[33.0951221, 47.5616794], [33.0875311, 47.5527966], [33.112937, 47.556388], [33.1434927, 47.547467], [33.144351, 47.5344882], [33.1618604, 47.5284612], [33.1822881, 47.5198832], [33.1985212, 47.5185585], [33.2041861, 47.503949], [33.2034994, 47.4886396], [33.2071049, 47.4797062], [33.2086493, 47.4690323], [33.2086493, 47.4653188], [33.2093359, 47.4620693], [33.2071043, 47.456034], [33.2005199, 47.4440095], [33.2222105, 47.4447741], [33.2361151, 47.4461672], [33.2373167, 47.4533644], [33.2307936, 47.4669435], [33.2268454, 47.4705408], [33.2236697, 47.4718753], [33.2170607, 47.4718172], [33.2138554, 47.4809885], [33.2182608, 47.484414], [33.21786, 47.4889996], [33.2182033, 47.5028015], [33.2151134, 47.5074399], [33.2099636, 47.5290034], [33.1981189, 47.5303942], [33.1830127, 47.5272647], [33.1680782, 47.5346826], [33.1658466, 47.5405929], [33.1557186, 47.5436058], [33.152457, 47.5541495], [33.1358059, 47.559131], [33.1110866, 47.5634169], [33.0951221, 47.5616794]]]}}, {"type": "Feature", "properties": {"name": "Liberated", "date": "2022-05-31", "layer_type": "liberated"}, "geometry": {"type": "Polygon", "coordinates": [[[34.9884561, 50.6411357], [35.0094558, 50.6613179], [35.0087691, 50.6806833], [35.013919, 50.6935166], [34.9847366, 50.7554586], [34.9589873, 50.7710942], [34.9445678, 50.7812979], [34.9414779, 50.7914994], [34.950061, 50.8127635], [34.9505778, 50.8249457], [34.9316951, 50.8255963], [34.9313517, 50.8114975], [34.9272319, 50.7913181], [34.9286052, 50.7785115], [34.943368, 50.7628784], [34.966714, 50.7485435], [34.9752971, 50.7276849], [34.9912621, 50.6937004], [34.9878289, 50.6834776], [34.9881722, 50.664331], [34.964595, 50.6404826], [34.9814178, 50.643313], [34.9884561, 50.6411357]]]}}, {"type": "Feature", "properties": {"name": "Liberated", "date": "2022-05-31", "layer_type": "liberated"}, "geometry": {"type": "Polygon", "coordinates": [[[34.9478831, 50.357578], [34.9342449, 50.330282], [34.9369915, 50.3175688], [34.9431713, 50.3077028], [34.9884899, 50.3074835], [35.037585, 50.3085798], [35.0688274, 50.3206378], [35.0990398, 50.3256794], [35.136462, 50.3291862], [35.1776607, 50.3320353], [35.1761747, 50.343452], [35.1668084, 50.3428836], [35.1633997, 50.3426852], [35.1595188, 50.342432], [35.1433284, 50.3414581], [35.1165493, 50.3703721], [35.0417049, 50.3664303], [35.0145824, 50.3775978], [34.9771602, 50.3729998], [34.9478831, 50.357578]]]}}, {"type": "Feature", "properties": {"name": "Liberated 10.05", "date": "2022-05-31", "layer_type": "liberated"}, "geometry": {"type": "Polygon", "coordinates": [[[36.577907, 50.046832], [36.7480927, 50.029631], [36.765366, 50.0192484], [36.8048747, 50.0284457], [36.8004973, 50.0378182], [36.7982872, 50.0511848], [36.7999823, 50.0518737], [36.8007678, 50.0685819], [36.798085, 50.0723777], [36.8030985, 50.0763958], [36.8039929, 50.0828374], [36.7985712, 50.0844845], [36.797684, 50.109808], [36.8103348, 50.1157472], [36.8112623, 50.1258677], [36.8144652, 50.1511682], [36.8352972, 50.1642584], [36.8488066, 50.1643153], [36.8424043, 50.1782266], [36.8253068, 50.19525], [36.7939675, 50.187637], [36.7718192, 50.2217305], [36.7201016, 50.2774139], [36.7102797, 50.2713783], [36.7058234, 50.2688258], [36.7033925, 50.2687258], [36.7042233, 50.2650598], [36.7023933, 50.2643015], [36.7009067, 50.2641467], [36.6965604, 50.2667448], [36.6955888, 50.2693604], [36.6932145, 50.2688028], [36.688609, 50.2667364], [36.6832603, 50.2577466], [36.6832336, 50.2565211], [36.6835239, 50.2547842], [36.6841582, 50.2498652], [36.6784414, 50.2368222], [36.6639935, 50.2223046], [36.6797426, 50.1886061], [36.603887, 50.1882098], [36.6063468, 50.1629654], [36.5883667, 50.1423563], [36.5225845, 50.1403062], [36.5142585, 50.1693554], [36.42137, 50.1709391], [36.364121, 50.1844609], [36.3045918, 50.177492], [36.2655435, 50.1808675], [36.218685, 50.1844612], [36.2158633, 50.1795562], [36.2197423, 50.1544194], [36.231807, 50.1518593], [36.2356302, 50.1440188], [36.2500395, 50.1292346], [36.3433079, 50.0860841], [36.4057153, 50.0689237], [36.3673921, 50.0447048], [36.4269858, 50.0153825], [36.4659363, 50.0019221], [36.4848063, 49.9887963], [36.4844361, 49.9288626], [36.5019456, 49.9297466], [36.5549863, 49.9997725], [36.577907, 50.046832]]]}}, {"type": "Feature", "properties": {"name": "Liberated", "date": "2022-05-31", "layer_type": "liberated"}, "geometry": {"type": "Polygon", "coordinates": [[[35.1776178, 50.3320353], [35.2290408, 50.3295554], [35.2578799, 50.3356917], [35.2791659, 50.331747], [35.3231112, 50.339636], [35.3567569, 50.3497145], [35.3979556, 50.3484001], [35.4748599, 50.3991995], [35.5030124, 50.4114533], [35.5117643, 50.4210858], [35.5482449, 50.4219629], [35.5663118, 50.4209754], [35.5833499, 50.425235], [35.5833498, 50.4299635], [35.5872122, 50.4310711], [35.5866973, 50.4370447], [35.5591411, 50.4268545], [35.5462659, 50.4291276], [35.5078182, 50.4271032], [35.5014679, 50.4337143], [35.492026, 50.4377007], [35.4693667, 50.4473211], [35.4325425, 50.4448095], [35.41701, 50.436826], [35.4095916, 50.4382744], [35.3985679, 50.4458443], [35.3785719, 50.4666629], [35.3528086, 50.4884046], [35.3965823, 50.5586878], [35.3693991, 50.6069855], [35.3323202, 50.643576], [35.3137808, 50.6670834], [35.319274, 50.6975385], [35.2953363, 50.7103787], [35.3641726, 50.7028776], [35.3782488, 50.6955928], [35.3864885, 50.6858054], [35.402453, 50.6788443], [35.4084612, 50.6831951], [35.4101778, 50.6935267], [35.4091478, 50.7001595], [35.4182459, 50.7014642], [35.425284, 50.6947229], [35.4304338, 50.6896119], [35.4426218, 50.6870018], [35.4597879, 50.6887418], [35.4601313, 50.6921131], [35.4606463, 50.7018991], [35.4565264, 50.7041822], [35.4560114, 50.7101613], [35.446055, 50.7063565], [35.4433085, 50.6966802], [35.4355837, 50.6964627], [35.4323221, 50.7030951], [35.4254557, 50.7086394], [35.3569628, 50.7138571], [35.2903582, 50.7278766], [35.2783419, 50.7278766], [35.2675272, 50.724834], [35.2644373, 50.7348305], [35.2728487, 50.7523193], [35.2733841, 50.7607443], [35.288662, 50.7619387], [35.2960434, 50.7663904], [35.2890053, 50.7729044], [35.2793923, 50.7789832], [35.2666893, 50.7820223], [35.2690926, 50.7901619], [35.2902069, 50.7903789], [35.3115407, 50.7932331], [35.3305951, 50.7933416], [35.3506795, 50.7932331], [35.3644124, 50.7938841], [35.3872434, 50.7942097], [35.4016629, 50.7955117], [35.4074994, 50.7987668], [35.3939382, 50.8026726], [35.3893033, 50.8110254], [35.4117909, 50.8118932], [35.4140225, 50.8186177], [35.387415, 50.8178585], [35.3510228, 50.8245822], [35.323557, 50.8440969], [35.3066397, 50.8407818], [35.2920485, 50.8352531], [35.2860403, 50.8349278], [35.2839804, 50.8424078], [35.2795172, 50.8514038], [35.2819204, 50.8583394], [35.2894735, 50.8621318], [35.2908468, 50.8686324], [35.2838087, 50.8701491], [35.2762556, 50.8676573], [35.2693892, 50.867549], [35.2669859, 50.8702574], [35.2747107, 50.8737239], [35.2874136, 50.8740488], [35.3004599, 50.8783816], [35.3183127, 50.8769735], [35.3275824, 50.8761069], [35.3456068, 50.8837969], [35.3543615, 50.8873707], [35.362773, 50.8901862], [35.3660345, 50.8935429], [35.3626013, 50.9000391], [35.35213, 50.9062097], [35.3383795, 50.9176134], [35.3232733, 50.9137173], [35.3301398, 50.9009443], [35.3370063, 50.891633], [35.3208701, 50.8853522], [35.3019873, 50.8875181], [35.2892844, 50.8868683], [35.2717749, 50.8868683], [35.2528922, 50.8853522], [35.2316062, 50.8851356], [35.2223365, 50.8847024], [35.1969306, 50.905924], [35.1783911, 50.9191285], [35.1557318, 50.9139338], [35.1485221, 50.8996452], [35.1474921, 50.884919], [35.1419989, 50.8680215], [35.1251761, 50.854369], [35.0987403, 50.8487335], [35.0843207, 50.8385445], [35.0456698, 50.842376], [35.0206072, 50.8384736], [34.994858, 50.8399912], [34.9697955, 50.8326193], [34.951256, 50.8382567], [34.93203, 50.8365222], [34.9316951, 50.8255963], [34.9505778, 50.8249457], [34.962929, 50.8235112], [34.9818118, 50.8245956], [35.0010378, 50.8241618], [35.0202639, 50.8230774], [35.0436099, 50.8235112], [35.0789721, 50.8235112], [35.0896151, 50.8135336], [35.1170809, 50.8044218], [35.1475503, 50.7992508], [35.188749, 50.7870976], [35.2265145, 50.7692961], [35.2457406, 50.7406258], [35.2464272, 50.7132424], [35.2670266, 50.6949778], [35.2711465, 50.6806221], [35.2793862, 50.6636506], [35.2903725, 50.6497207], [35.2986123, 50.6392706], [35.2594735, 50.6262046], [35.2423074, 50.618799], [35.2251412, 50.6205416], [35.2189614, 50.6074704], [35.2175881, 50.5913443], [35.1866891, 50.5590756], [35.1608285, 50.5459795], [35.1189432, 50.5420523], [35.0990304, 50.5472885], [35.0365457, 50.5307053], [35.0152597, 50.5158628], [34.9809991, 50.4949988], [34.9929186, 50.4801327], [35.0125131, 50.4787361], [35.0255594, 50.4717442], [35.0454721, 50.4726183], [35.0543985, 50.4826685], [35.080491, 50.4778621], [35.1113901, 50.4734923], [35.1319894, 50.4678109], [35.1512155, 50.4599432], [35.1718149, 50.4507625], [35.1931009, 50.442892], [35.1971359, 50.436168], [35.2066621, 50.4294435], [35.1898393, 50.4167021], [35.1759761, 50.4065829], [35.1617727, 50.399143], [35.1492398, 50.3981853], [35.1378243, 50.3960232], [35.1412151, 50.3890598], [35.1352716, 50.3869462], [35.1349933, 50.3835192], [35.1452074, 50.3805375], [35.1424192, 50.3734743], [35.1435673, 50.3700936], [35.1416255, 50.366056], [35.1437501, 50.362908], [35.146003, 50.3603897], [35.151174, 50.359514], [35.157567, 50.3544226], [35.1580222, 50.3507847], [35.1594759, 50.342432], [35.1667655, 50.3428836], [35.1663579, 50.3463807], [35.1654783, 50.3495025], [35.164727, 50.3547328], [35.1639924, 50.3582684], [35.1609832, 50.3597776], [35.1570725, 50.3627651], [35.1570241, 50.3636172], [35.1597489, 50.3649449], [35.1594379, 50.3672784], [35.1583544, 50.3686265], [35.1569165, 50.3699813], [35.1521957, 50.3710216], [35.1578606, 50.3800538], [35.1760138, 50.3923399], [35.2055396, 50.4098469], [35.2345503, 50.4313934], [35.2443351, 50.4424363], [35.2827872, 50.4514], [35.3217543, 50.4747849], [35.3342855, 50.4849441], [35.3451003, 50.4758774], [35.3576316, 50.4656072], [35.3723944, 50.453586], [35.3847541, 50.4409058], [35.3741111, 50.4317215], [35.3679312, 50.4240665], [35.3778876, 50.4194729], [35.387844, 50.4175041], [35.387844, 50.410722], [35.3864707, 50.3980304], [35.3888739, 50.3870865], [35.3916205, 50.3739506], [35.3909339, 50.3647533], [35.3555716, 50.3654103], [35.3253592, 50.3638773], [35.3143729, 50.3564304], [35.2886237, 50.3476678], [35.2673377, 50.3489823], [35.2350653, 50.3452579], [35.2055396, 50.3419713], [35.1761318, 50.343452], [35.1776178, 50.3320353]]]}}, {"type": "Feature", "properties": {"name": "Liberated", "date": "2022-05-31", "layer_type": "liberated"}, "geometry": {"type": "Polygon", "coordinates": [[[32.6491432, 50.7805892], [32.6788532, 50.7857395], [32.7139648, 50.7813593], [32.7603534, 50.797393], [32.8046915, 50.8089938], [32.8131975, 50.802346], [32.7894352, 50.7887543], [32.7920353, 50.7802337], [32.7852621, 50.771757], [32.7998608, 50.7619664], [32.8306876, 50.7772828], [32.8210648, 50.7894901], [32.840981, 50.7990715], [32.8276067, 50.8153541], [32.8686531, 50.8232835], [32.9063519, 50.8311382], [32.9578226, 50.8454625], [33.0151328, 50.8419895], [33.0432029, 50.8385344], [33.0753957, 50.8463448], [33.1123905, 50.8506756], [33.1236754, 50.826169], [33.1528027, 50.8272454], [33.1575155, 50.856481], [33.2004061, 50.8620091], [33.1957173, 50.87558], [33.126572, 50.9216665], [33.1272821, 50.9392118], [33.1195614, 50.942411], [33.0823136, 50.9430099], [33.0634214, 50.9619406], [32.9723403, 50.9494056], [32.9212758, 50.9738509], [33.0157387, 51.0162278], [33.0384205, 51.0199533], [33.0707244, 51.0314468], [33.0823254, 51.0307151], [33.0856855, 51.0243689], [33.091716, 51.013403], [33.1297439, 51.0047811], [33.1475194, 51.0108359], [33.1566563, 51.0195097], [33.1616803, 51.0558225], [33.2511817, 51.0845338], [33.2939773, 51.0454651], [33.3644725, 51.0535808], [33.3839911, 51.0797157], [33.4274557, 51.1539863], [33.2988487, 51.2089455], [33.1743297, 51.1812605], [33.1052524, 51.1807041], [33.023833, 51.1706295], [32.9770655, 51.1269265], [32.9617275, 51.1523346], [32.8267394, 51.272776], [32.8891433, 51.281688], [32.9903859, 51.2465816], [33.1135219, 51.2491844], [33.1091962, 51.2644969], [32.9772836, 51.2873901], [32.8884601, 51.3284769], [32.8178195, 51.3278547], [32.7449207, 51.3228925], [32.7230952, 51.3087142], [32.5646521, 51.304553], [32.4131497, 51.3137365], [32.2129313, 51.457005], [32.2406534, 51.50289], [32.4896261, 51.5067155], [32.4573538, 51.5699243], [32.2298287, 51.5528951], [31.8441802, 51.5982988], [31.8237775, 51.5639839], [32.0873805, 51.4889321], [32.1637214, 51.4237484], [32.306255, 51.3261446], [32.367477, 51.267057], [32.3393814, 51.2223997], [32.1412049, 51.1827937], [32.1521693, 51.1307845], [32.1205859, 51.0744653], [32.414749, 51.0875602], [32.3893158, 50.9845856], [32.2485547, 50.9763047], [32.1126909, 50.9484019], [32.1229907, 50.9282816], [32.1944189, 50.9313472], [32.2631254, 50.9447566], [32.5228617, 50.957429], [32.5324879, 50.9378317], [32.5204941, 50.888568], [32.5736355, 50.8108579], [32.6110088, 50.7776399], [32.6491432, 50.7805892]], [[32.6110088, 50.7776399], [32.6268599, 50.7873811], [32.6172174, 50.790639], [32.6110088, 50.7776399]]]}}, {"type": "Feature", "properties": {"name": "Liberated 05.04", "date": "2022-05-31", "layer_type": "liberated"}, "geometry": {"type": "Polygon", "coordinates": [[[33.689887, 47.4500507], [33.6539263, 47.4483376], [33.6367578, 47.4700132], [33.6277062, 47.4794433], [33.6030685, 47.5054005], [33.5705806, 47.572147], [33.4776277, 47.5611406], [33.4916686, 47.519439], [33.4989476, 47.5120287], [33.5460514, 47.5180609], [33.5544203, 47.5050804], [33.5962601, 47.4966346], [33.6204517, 47.4668763], [33.6204514, 47.451615], [33.6341916, 47.4392032], [33.6632837, 47.4361187], [33.7214016, 47.4308333], [33.7052507, 47.4514437], [33.689887, 47.4500507]]]}}, {"type": "Feature", "properties": {"name": "Liberated 16.04", "date": "2022-05-31", "layer_type": "liberated"}, "geometry": {"type": "Polygon", "coordinates": [[[36.8927814, 49.7995755], [36.9239557, 49.7899688], [37.0058813, 49.8298088], [37.0028923, 49.8424104], [36.9856275, 49.8334502], [36.977347, 49.8358304], [36.8983152, 49.8121701], [36.8895397, 49.8053192], [36.8927814, 49.7995755]]]}}, {"type": "Feature", "properties": {"name": "Liberated", "date": "2022-05-31", "layer_type": "liberated"}, "geometry": {"type": "Polygon", "coordinates": [[[37.533827, 47.9505916], [37.5201386, 47.9514267], [37.5043001, 47.9406164], [37.5028858, 47.9235955], [37.5048608, 47.9230208], [37.534342, 47.9134415], [37.5428393, 47.9324766], [37.533827, 47.9505916]]]}}, {"type": "Feature", "properties": {"name": "Liberated", "date": "2022-05-31", "layer_type": "liberated"}, "geometry": {"type": "Polygon", "coordinates": [[[36.4844361, 49.9288626], [36.4839776, 49.9089439], [36.4844005, 49.9011872], [36.5057638, 49.897078], [36.5851256, 49.8773939], [36.5828146, 49.8698789], [36.5822212, 49.8599853], [36.610551, 49.8547093], [36.6126321, 49.8546005], [36.6152285, 49.862128], [36.6185979, 49.8725311], [36.6254868, 49.8698783], [36.6356789, 49.8618999], [36.6470585, 49.8547408], [36.6649965, 49.8461624], [36.6740515, 49.8401574], [36.6787852, 49.8290105], [36.6699625, 49.8282597], [36.6498051, 49.8230773], [36.6538338, 49.819353], [36.6588925, 49.8209446], [36.6710699, 49.822801], [36.6775729, 49.8176525], [36.6850872, 49.8197601], [36.6918786, 49.8253045], [36.7020278, 49.8168985], [36.7085964, 49.8222372], [36.7224176, 49.8120877], [36.7191576, 49.8059655], [36.7064548, 49.7990397], [36.690662, 49.7953829], [36.695467, 49.790285], [36.7201862, 49.7947177], [36.7307308, 49.8022533], [36.7337723, 49.8074608], [36.741449, 49.8053559], [36.7633276, 49.7909599], [36.7999879, 49.7796634], [36.8041522, 49.7769277], [36.7949275, 49.7690927], [36.7909822, 49.7618187], [36.7939865, 49.7597576], [36.7975056, 49.75814], [36.7987503, 49.7580652], [36.8264801, 49.7742571], [36.8424327, 49.7665284], [36.8459974, 49.7643845], [36.8501831, 49.7670824], [36.8475025, 49.770002], [36.8425359, 49.7730685], [36.8290022, 49.7835063], [36.8292836, 49.7883853], [36.8234275, 49.7942334], [36.8169531, 49.7973297], [36.8147673, 49.7952071], [36.814856, 49.7935001], [36.8189877, 49.7875307], [36.777873, 49.7982005], [36.7611318, 49.8106783], [36.7475705, 49.8187643], [36.740518, 49.8263077], [36.7172935, 49.843858], [36.7031724, 49.8464545], [36.7061689, 49.8527543], [36.7312535, 49.8687615], [36.7494472, 49.8765797], [36.7806896, 49.8708269], [36.799229, 49.8661798], [36.8397411, 49.8579911], [36.855534, 49.8559991], [36.8816265, 49.8571058], [36.9128689, 49.8553351], [36.9269451, 49.8551137], [36.941708, 49.8568845], [36.9626507, 49.8655159], [36.972607, 49.8750309], [36.9770702, 49.8821106], [36.962994, 49.8843228], [36.9475445, 49.8812257], [36.9163021, 49.8852077], [36.9039425, 49.8801196], [36.9032558, 49.870163], [36.8943294, 49.8661798], [36.8737301, 49.867065], [36.855534, 49.8661798], [36.8064388, 49.8759159], [36.7820629, 49.8827743], [36.7552837, 49.8927282], [36.724213, 49.8888022], [36.7099652, 49.8818341], [36.7068752, 49.8779072], [36.7009602, 49.8647004], [36.6901457, 49.8483218], [36.6818208, 49.8474356], [36.6710911, 49.8509777], [36.6520356, 49.8599431], [36.6410656, 49.8657607], [36.634501, 49.8699418], [36.6296537, 49.8729932], [36.6240333, 49.8752698], [36.6165744, 49.8778258], [36.6126341, 49.881377], [36.6123057, 49.887705], [36.6071853, 49.8886371], [36.6084184, 49.8940826], [36.612227, 49.8984219], [36.6174092, 49.9034801], [36.6177855, 49.9085382], [36.6028894, 49.9079296], [36.5990354, 49.907376], [36.5909762, 49.9019022], [36.5855022, 49.8953765], [36.5795574, 49.8890156], [36.5730663, 49.8888208], [36.567605, 49.8905059], [36.5607205, 49.8922059], [36.5548661, 49.8901455], [36.5448731, 49.893323], [36.5196472, 49.90089], [36.5018018, 49.9120383], [36.5019456, 49.9297466], [36.4844361, 49.9288626]]]}}, {"type": "Feature", "properties": {"name": "Liberated", "date": "2022-05-31", "layer_type": "liberated"}, "geometry": {"type": "Polygon", "coordinates": [[[32.080764, 46.6625537], [32.0918345, 46.6984634], [32.1206253, 46.7154748], [32.1226493, 46.7418994], [32.1569473, 46.7454015], [32.1596677, 46.7804982], [32.1096031, 46.7896389], [31.9643776, 46.7724764], [31.9420616, 46.7444874], [31.9746772, 46.7105989], [31.9667808, 46.6823422], [31.9781105, 46.6568985], [32.0023148, 46.6407544], [32.0146743, 46.6386329], [32.0423118, 46.6408722], [32.080764, 46.6625537]]]}}, {"type": "Feature", "properties": {"name": "Liberated", "date": "2022-05-31", "layer_type": "liberated"}, "geometry": {"type": "Polygon", "coordinates": [[[33.2222105, 47.4447741], [33.2005199, 47.4440095], [33.2045133, 47.4363455], [33.216058, 47.431932], [33.2185443, 47.4117249], [33.198015, 47.3730194], [33.1919693, 47.3570351], [33.175629, 47.3491896], [33.1735093, 47.3433898], [33.1847784, 47.3401488], [33.1995625, 47.3391393], [33.2066141, 47.343229], [33.2141816, 47.3454572], [33.2206536, 47.3518584], [33.2233509, 47.3657023], [33.2441219, 47.4119572], [33.2361151, 47.4461672], [33.2222105, 47.4447741]]]}}, {"type": "Feature", "properties": {"name": "Liberated 31.03", "date": "2022-05-31", "layer_type": "liberated"}, "geometry": {"type": "Polygon", "coordinates": [[[31.6633791, 50.6073872], [31.6547897, 50.5983703], [31.656163, 50.5918321], [31.6630294, 50.585729], [31.675389, 50.5783169], [31.6925552, 50.584857], [31.7241409, 50.6031644], [31.7708328, 50.6301766], [31.8394973, 50.6506433], [31.8635299, 50.6758877], [31.9122817, 50.6919848], [31.9596603, 50.6963344], [32.0036056, 50.7072067], [32.033818, 50.7206848], [32.0894363, 50.7502362], [32.1436813, 50.7867151], [32.1347549, 50.7975665], [32.125048, 50.8071984], [32.1354881, 50.8280245], [32.0257862, 50.9230114], [32.1229907, 50.9282816], [32.1126909, 50.9484019], [31.9215342, 50.9667243], [31.8965111, 50.9633229], [31.9117328, 50.9345743], [31.9804235, 50.8642595], [32.0983627, 50.8222981], [32.0097854, 50.7628334], [31.9610336, 50.7350283], [31.8971755, 50.7198154], [31.8326309, 50.7006836], [31.807225, 50.6719713], [31.7735794, 50.6593498], [31.6932418, 50.6188508], [31.6739599, 50.610871], [31.6633791, 50.6073872]]]}}, {"type": "Feature", "properties": {"name": "Liberated", "date": "2022-05-31", "layer_type": "liberated"}, "geometry": {"type": "Polygon", "coordinates": [[[33.1503344, 47.3037415], [33.0962683, 47.2355339], [33.0940611, 47.2262445], [33.0868708, 47.2230274], [33.0660218, 47.2207157], [33.0681766, 47.2142046], [33.0673967, 47.2007253], [33.054348, 47.1916379], [33.0366465, 47.1880265], [33.0348344, 47.1829845], [33.0390302, 47.1785258], [33.0309787, 47.1671112], [33.0483318, 47.1638656], [33.0756689, 47.167305], [33.1308538, 47.1896865], [33.1678427, 47.2026084], [33.1949402, 47.1974471], [33.2233157, 47.2144478], [33.2036293, 47.2370451], [33.2031609, 47.2765613], [33.2197929, 47.290219], [33.2278821, 47.2922358], [33.2355289, 47.2899172], [33.2522714, 47.288994], [33.2587261, 47.2875417], [33.263702, 47.2889762], [33.2742585, 47.2967548], [33.2744253, 47.3042613], [33.2699816, 47.3071873], [33.2609789, 47.3049835], [33.2538647, 47.3055728], [33.244622, 47.3078188], [33.2348495, 47.3140049], [33.2322795, 47.3215788], [33.2408203, 47.325276], [33.2459291, 47.3306019], [33.2424141, 47.3368324], [33.2206536, 47.3518584], [33.2141816, 47.3454572], [33.2066141, 47.343229], [33.1995625, 47.3391393], [33.1847784, 47.3401488], [33.1503344, 47.3037415]]]}}, {"type": "Feature", "properties": {"name": "Liberated 22.05", "date": "2022-05-31", "layer_type": "liberated"}, "geometry": {"type": "Polygon", "coordinates": [[[36.6132781, 47.7920931], [36.6109799, 47.7859806], [36.6458458, 47.7903034], [36.6356319, 47.7948876], [36.6373485, 47.8204823], [36.6146888, 47.8182931], [36.6085094, 47.8176006], [36.6132781, 47.7920931]]]}}, {"type": "Feature", "properties": {"name": "Liberated", "date": "2022-05-31", "layer_type": "liberated"}, "geometry": {"type": "Polygon", "coordinates": [[[35.504764, 47.5503543], [35.5074008, 47.5135746], [35.643254, 47.5138651], [35.6375712, 47.5570274], [35.5919093, 47.5635144], [35.504764, 47.5503543]]]}}, {"type": "Feature", "properties": {"name": "\u0420\u0443\u0431\u0456\u0436\u043d\u0435. \u0422\u0435\u0440\u0438\u0442\u043e\u0440\u0456\u0457 \u0437\u0430\u0439\u043d\u044f\u0442\u0456 \u0432\u043e\u0440\u043e\u0433\u043e\u043c. \n\n12.05 \u0431\u0443\u0432 \u0432\u0456\u0434\u0445\u0456\u0434 \u0437 \u041f\u0456\u0432\u0434\u0435\u043d\u043d\u043e\u0457, \u0442\u0430 \u0439\u043c\u043e\u0432\u0456\u0440\u043d\u043e, \u0417\u0430\u0431\u0456\u0440\u043a\u0456\u043d\u043e.\n // Rubizhne. Territory, which is under occupation.\n\n12.05 Southern, and probably, Zabirkino, were left", "date": "2022-05-31", "layer_type": "russian_occupied"}, "geometry": {"type": "Polygon", "coordinates": [[[38.355341, 49.0541261], [38.3448782, 49.0470349], [38.3403623, 49.0426207], [38.3344555, 49.0328516], [38.3315352, 49.024416], [38.3377475, 49.0177882], [38.3386376, 49.0160011], [38.3419272, 49.0109707], [38.3460135, 49.0073975], [38.3452163, 49.0056545], [38.3438042, 49.0042337], [38.3425647, 49.0019117], [38.3412099, 49.0007319], [38.3479288, 48.9979985], [38.3506876, 48.9957869], [38.352711, 48.993583], [38.3537226, 48.9915236], [38.3568033, 48.9906629], [38.3579958, 48.9897456], [38.3595878, 48.9892533], [38.3628729, 48.989007], [38.3665755, 48.9874194], [38.3691135, 48.9852172], [38.3693526, 48.9814122], [38.3767081, 48.9773065], [38.3824886, 48.9730844], [38.3843308, 48.9713668], [38.3863445, 48.9698746], [38.3920489, 48.9661283], [38.3930558, 48.9654525], [38.3942888, 48.9649456], [38.3955919, 48.9640159], [38.3968013, 48.9628466], [38.3976635, 48.961783], [38.3991246, 48.9607157], [38.3997693, 48.9591113], [38.4017225, 48.9618876], [38.4030854, 48.9623741], [38.4039385, 48.9625892], [38.4041505, 48.9629221], [38.4026257, 48.9645256], [38.403022, 48.9655245], [38.4043359, 48.9662212], [38.4060872, 48.9661751], [38.4079928, 48.9664901], [38.4089885, 48.9669857], [38.4093019, 48.9675886], [38.4097289, 48.9677744], [38.410333, 48.9675941], [38.4108329, 48.9670222], [38.4115856, 48.9665164], [38.4128416, 48.9662354], [38.4131907, 48.9660526], [38.4134297, 48.9661303], [38.4132916, 48.9668593], [38.4141667, 48.9669844], [38.4150239, 48.9668412], [38.4157698, 48.9661752], [38.4169612, 48.9659703], [38.4174558, 48.9660394], [38.4177582, 48.9663466], [38.4175478, 48.9667074], [38.4167488, 48.9669111], [38.4163096, 48.9676566], [38.4164612, 48.9681334], [38.4180611, 48.9681805], [38.4188242, 48.968453], [38.4193204, 48.9685472], [38.4199943, 48.9681834], [38.4199602, 48.9677914], [38.4203209, 48.9676272], [38.4209995, 48.9675806], [38.4221422, 48.9679662], [38.4222067, 48.9683537], [38.4225932, 48.9687907], [38.4222505, 48.9690447], [38.4253534, 48.9762954], [38.4241472, 48.9814425], [38.4336636, 48.99327], [38.4443002, 49.0031254], [38.4325798, 49.0104879], [38.4241521, 49.0156399], [38.419964, 49.0293865], [38.4068499, 49.0361959], [38.355341, 49.0541261]]]}}, {"type": "Feature", "properties": {"name": "Occupied", "date": "2022-05-31", "layer_type": "russian_occupied"}, "geometry": {"type": "Polygon", "coordinates": [[[36.603887, 50.1882098], [36.6797426, 50.1886061], [36.6639935, 50.2223046], [36.6479893, 50.2177626], [36.6404371, 50.222102], [36.6400448, 50.2226019], [36.6360536, 50.2236727], [36.619141, 50.2269951], [36.6159111, 50.227192], [36.6147727, 50.2269816], [36.6134849, 50.2237342], [36.5952246, 50.2299114], [36.603887, 50.1882098]]]}}, {"type": "Feature", "properties": {"name": "Snake Island", "date": "2022-05-31", "layer_type": "russian_occupied"}, "geometry": {"type": "Polygon", "coordinates": [[[30.1991118, 45.2687362], [30.1845198, 45.2535108], [30.2092406, 45.2428748], [30.2241755, 45.2570137], [30.1991118, 45.2687362]]]}}, {"type": "Feature", "properties": {"name": "Occupied", "date": "2022-05-31", "layer_type": "russian_occupied"}, "geometry": {"type": "Polygon", "coordinates": [[[37.8562077, 48.1928465], [37.8833302, 48.1997121], [37.8965706, 48.2154292], [37.8929432, 48.2335689], [37.89157, 48.2550609], [37.8953466, 48.268546], [37.8881602, 48.2836394], [37.8901968, 48.2991598], [37.835636, 48.2950337], [37.8217294, 48.2899051], [37.799505, 48.2780342], [37.8003803, 48.2723378], [37.7772671, 48.2702727], [37.7497154, 48.2609023], [37.7562384, 48.2384982], [37.8125434, 48.2380409], [37.8228431, 48.230723], [37.8290229, 48.2041871], [37.8077741, 48.1849014], [37.8103277, 48.1553785], [37.8094909, 48.1524009], [37.8198549, 48.1438969], [37.824622, 48.1578177], [37.8285927, 48.1751503], [37.8562077, 48.1928465]]]}}, {"type": "Feature", "properties": {"name": "Occupied", "date": "2022-05-31", "layer_type": "russian_occupied"}, "geometry": {"type": "Polygon", "coordinates": [[[38.4024861, 48.5572586], [38.4019504, 48.5615018], [38.4019712, 48.5747527], [38.402637, 48.5810386], [38.402637, 48.5919397], [38.4060702, 48.6019302], [38.4048036, 48.6090985], [38.4046894, 48.6169314], [38.4088093, 48.62964], [38.4143025, 48.6382619], [38.4198032, 48.6450485], [38.4314762, 48.6504924], [38.4452016, 48.6550476], [38.4108459, 48.6815203], [38.3905383, 48.6787593], [38.3637079, 48.6809805], [38.3565327, 48.6935717], [38.3613732, 48.7034433], [38.2592477, 48.7341264], [38.2564334, 48.7291387], [38.2403565, 48.727431], [38.2894149, 48.7026821], [38.2787164, 48.6783831], [38.1985156, 48.6748744], [38.1787507, 48.6672633], [38.1834193, 48.6587625], [38.169686, 48.5849223], [38.1808405, 48.5715841], [38.2017839, 48.5480147], [38.3291659, 48.5249066], [38.2831531, 48.5021825], [38.2900196, 48.4958126], [38.2866119, 48.4873164], [38.2719382, 48.4678471], [38.2620759, 48.4670409], [38.2580532, 48.4726105], [38.2220984, 48.4752176], [38.212068, 48.4712267], [38.2181744, 48.4617727], [38.1950951, 48.4203152], [38.1308665, 48.3879273], [38.1500926, 48.3854193], [38.1847683, 48.3749299], [38.2074276, 48.371509], [38.2149807, 48.3690002], [38.2276837, 48.3671755], [38.2591203, 48.359806], [38.2736891, 48.3591918], [38.2907061, 48.361631], [38.3217544, 48.3710529], [38.355829, 48.3910748], [38.390964, 48.4158739], [38.3892474, 48.4322779], [38.3930237, 48.436606], [38.4053767, 48.4733655], [38.4115634, 48.5105796], [38.4143026, 48.5206053], [38.402637, 48.5478669], [38.4024861, 48.5572586]]]}}, {"type": "Feature", "properties": {"name": "Occupied", "date": "2022-05-31", "layer_type": "russian_occupied"}, "geometry": {"type": "Polygon", "coordinates": [[[38.4241521, 49.0156399], [38.4443002, 49.0031254], [38.4336636, 48.99327], [38.4241472, 48.9814425], [38.4253534, 48.9762954], [38.4222505, 48.9690447], [38.4239167, 48.9691798], [38.4255224, 48.9686838], [38.4273122, 48.9692246], [38.4347733, 48.969185], [38.43771, 48.9692215], [38.4399725, 48.9705637], [38.4415758, 48.9696572], [38.4423639, 48.9680746], [38.4493111, 48.9689197], [38.4561328, 48.9670038], [38.464136, 48.9686375], [38.471625, 48.968892], [38.4814356, 48.9671326], [38.4879984, 48.9644417], [38.5034873, 48.9636375], [38.5071913, 48.960954], [38.511397, 48.9543621], [38.5159291, 48.9529027], [38.5245814, 48.9515553], [38.5369859, 48.9487834], [38.5469867, 48.9466871], [38.5610177, 48.9443459], [38.5575382, 48.9365924], [38.5363375, 48.9372666], [38.5346637, 48.9318502], [38.5324546, 48.9293672], [38.5344414, 48.9203973], [38.5278414, 48.9111891], [38.539347, 48.9074763], [38.5553151, 48.9089518], [38.5875822, 48.8891046], [38.603509, 48.8690235], [38.5881134, 48.8437268], [38.5596608, 48.7811835], [38.5475555, 48.7463219], [38.5333719, 48.7243497], [38.5457643, 48.7019808], [38.5594447, 48.6865289], [38.5722305, 48.6888898], [38.5777312, 48.696576], [38.5784179, 48.7092645], [38.5832168, 48.7197038], [38.6301662, 48.7210062], [38.6523391, 48.7222613], [38.6784104, 48.7235352], [38.674548, 48.7291971], [38.6917143, 48.7291971], [38.7535123, 48.7183257], [38.7670659, 48.7141542], [38.8084363, 48.713248], [38.8300656, 48.7168724], [38.8360738, 48.7231013], [38.8413953, 48.7333489], [38.8471459, 48.7427454], [38.8561581, 48.7503293], [38.8728093, 48.7531022], [38.8920353, 48.7507254], [38.9047382, 48.7504424], [38.9198444, 48.7454621], [38.9330624, 48.7480655], [38.9361523, 48.7435944], [38.9317749, 48.7362926], [38.9446494, 48.7352736], [38.9571808, 48.7392927], [38.9594982, 48.7469902], [38.9799258, 48.7434812], [38.9884361, 48.734854], [38.9965845, 48.7242147], [38.9977862, 48.7195715], [38.9943454, 48.7156832], [38.9888597, 48.7150412], [38.9831949, 48.7140218], [38.9837882, 48.7108694], [38.9955682, 48.7122995], [38.9977862, 48.7096043], [38.9965846, 48.7063192], [38.9984728, 48.7009947], [39.0018127, 48.6972182], [39.0070558, 48.6968026], [39.0137431, 48.6958586], [39.0147806, 48.6894373], [39.0122056, 48.6833176], [39.0176913, 48.6798232], [39.0192438, 48.6766305], [39.0192438, 48.6719829], [39.0235353, 48.6692622], [39.0252519, 48.6666547], [39.0266252, 48.6626866], [39.021647, 48.6615528], [39.0173555, 48.6629133], [39.0096307, 48.6624598], [39.012288, 48.6585575], [39.018378, 48.6568095], [39.027991, 48.6534076], [39.0355441, 48.6480774], [39.044478, 48.6473779], [39.0534044, 48.6482852], [39.0648982, 48.6502322], [39.0707421, 48.6525947], [39.0786385, 48.6514606], [39.0872217, 48.6516875], [39.0975214, 48.651007], [39.1040444, 48.6516875], [39.1108175, 48.6558457], [39.1189714, 48.6600978], [39.1239571, 48.6612693], [39.1288494, 48.6610425], [39.1371675, 48.660438], [39.1380333, 48.6628], [39.1375184, 48.665521], [39.1383767, 48.668412], [39.1418882, 48.673419], [39.1463589, 48.6769138], [39.1525387, 48.6769705], [39.1590543, 48.6768196], [39.168589, 48.6805409], [39.1712497, 48.6822409], [39.1759842, 48.6849517], [39.1797608, 48.6925443], [39.1837839, 48.6979315], [39.1867021, 48.7007639], [39.1891837, 48.7021992], [39.1914153, 48.705088], [39.192367, 48.7071081], [39.1936682, 48.7076087], [39.1959073, 48.7066833], [39.1965053, 48.7032323], [39.1999414, 48.6995461], [39.2060142, 48.6994045], [39.2077307, 48.7013871], [39.2106489, 48.7035962], [39.2139105, 48.7056354], [39.2198329, 48.7067682], [39.2237995, 48.7100726], [39.2283301, 48.7121488], [39.2328148, 48.7122773], [39.2360688, 48.7104274], [39.2390699, 48.7103748], [39.2462612, 48.713697], [39.2485551, 48.7189657], [39.2493586, 48.7243805], [39.2545095, 48.7322642], [39.2521052, 48.7366091], [39.2505603, 48.7400055], [39.2523552, 48.7426848], [39.2658307, 48.7431376], [39.2670324, 48.7455147], [39.2665249, 48.7486085], [39.2656666, 48.7515512], [39.2690065, 48.7545695], [39.2742711, 48.7541695], [39.2749577, 48.7499819], [39.2806194, 48.7501556], [39.285486, 48.7517966], [39.2851608, 48.7543623], [39.2859408, 48.7584173], [39.2881158, 48.7608828], [39.2931506, 48.762378], [39.2983004, 48.7652068], [39.301297, 48.7684505], [39.3024203, 48.7713165], [39.3043086, 48.7735791], [39.3091075, 48.7752951], [39.3142648, 48.7757286], [39.3193215, 48.7767657], [39.3254153, 48.7755214], [39.3259378, 48.7721084], [39.3259303, 48.768507], [39.330916, 48.7674697], [39.3377824, 48.7671303], [39.3435255, 48.7692425], [39.3487687, 48.7695063], [39.3530527, 48.7666402], [39.3497986, 48.76317], [39.3447271, 48.7611523], [39.3420739, 48.7551355], [39.3455854, 48.7504576], [39.3463654, 48.7470996], [39.3492837, 48.7422322], [39.3546052, 48.7403077], [39.3575159, 48.7358549], [39.3561501, 48.732043], [39.3530602, 48.7287594], [39.3534819, 48.7260608], [39.3601768, 48.7224371], [39.3667857, 48.7210781], [39.3713285, 48.7197891], [39.3721738, 48.7169446], [39.3685024, 48.7154719], [39.3630092, 48.7157551], [39.3575159, 48.7144526], [39.3541492, 48.7129804], [39.3486561, 48.7132069], [39.3454138, 48.7117908], [39.3503061, 48.7057871], [39.3525377, 48.7006891], [39.3586124, 48.696214], [39.367024, 48.6913417], [39.3793107, 48.6861562], [39.3890158, 48.6842587], [39.3879858, 48.6805753], [39.3903698, 48.6779686], [39.3936313, 48.6762684], [39.401032, 48.6749646], [39.4058385, 48.6735477], [39.411141, 48.6696935], [39.4123426, 48.666746], [39.4080511, 48.662381], [39.4070963, 48.6592629], [39.410701, 48.6575053], [39.417501, 48.6592626], [39.4372385, 48.6563204], [39.4460791, 48.6573976], [39.4506981, 48.6554075], [39.4513148, 48.6515576], [39.4481232, 48.6473557], [39.4496729, 48.6426975], [39.4505741, 48.6413647], [39.4542219, 48.6396349], [39.4598009, 48.6395782], [39.4639317, 48.6393083], [39.4656801, 48.6379334], [39.4627302, 48.6327854], [39.4631482, 48.628886], [39.4673109, 48.6285457], [39.4731046, 48.6289995], [39.4785978, 48.6289995], [39.4856788, 48.6302759], [39.4892409, 48.6314671], [39.4940044, 48.6332256], [39.499755, 48.6340481], [39.5026304, 48.6348138], [39.506933, 48.6353947], [39.5101946, 48.635338], [39.5128427, 48.6344001], [39.5157735, 48.6297223], [39.5119844, 48.6249834], [39.5116537, 48.6217231], [39.5162758, 48.617948], [39.5233267, 48.6148575], [39.5270173, 48.6094098], [39.5236681, 48.6060311], [39.5224791, 48.6025425], [39.5240115, 48.598539], [39.5313928, 48.5969496], [39.5321779, 48.5933469], [39.5274446, 48.5918406], [39.5252131, 48.5884343], [39.5312211, 48.5841193], [39.5415209, 48.5841193], [39.5459841, 48.5871852], [39.5458125, 48.5921812], [39.5477007, 48.5968361], [39.5545672, 48.5994472], [39.5617769, 48.5984255], [39.5656519, 48.593801], [39.5653817, 48.5887749], [39.5612745, 48.5846606], [39.5681283, 48.5818481], [39.5749216, 48.5840928], [39.5823032, 48.5888052], [39.5931909, 48.5935437], [39.6010873, 48.5912729], [39.6050355, 48.5866175], [39.6000573, 48.5853684], [39.5945642, 48.5809396], [39.5943193, 48.5762567], [39.6024606, 48.574466], [39.6094987, 48.5749203], [39.6148202, 48.5798039], [39.6173951, 48.5861633], [39.6222017, 48.586731], [39.6304415, 48.580826], [39.6409128, 48.5828701], [39.6505257, 48.5852548], [39.669902, 48.5889868], [39.677305, 48.5874123], [39.6863298, 48.5868181], [39.6880015, 48.5869198], [39.6872709, 48.5870843], [39.6867984, 48.5877484], [39.6866907, 48.5895424], [39.6861432, 48.5898291], [39.6854832, 48.5899583], [39.6839086, 48.5907325], [39.6833787, 48.5914318], [39.683221, 48.5921079], [39.6830348, 48.5924033], [39.680002, 48.5923098], [39.6794939, 48.5919507], [39.6795833, 48.5906215], [39.6790701, 48.5901982], [39.6786419, 48.5901143], [39.6777198, 48.5902284], [39.6767651, 48.5907822], [39.6763736, 48.5913004], [39.6757272, 48.5930922], [39.6757257, 48.5937894], [39.6762185, 48.5944077], [39.6768298, 48.5949987], [39.6776343, 48.5954477], [39.6779105, 48.595784], [39.6781759, 48.5958578], [39.6785928, 48.5957776], [39.6788764, 48.5955955], [39.6792435, 48.5955045], [39.6795451, 48.5955158], [39.6799642, 48.5957272], [39.6803132, 48.5960245], [39.6804663, 48.5962937], [39.680296, 48.5967051], [39.6800822, 48.5970137], [39.6799001, 48.5971857], [39.6794979, 48.5974385], [39.6789588, 48.597728], [39.6785766, 48.5978657], [39.6781602, 48.5978991], [39.6778834, 48.5979183], [39.6767071, 48.597799], [39.6760225, 48.5974414], [39.6753905, 48.5967162], [39.6750423, 48.5965239], [39.674482, 48.5961368], [39.6736869, 48.5957233], [39.6728387, 48.5954668], [39.6718245, 48.5952889], [39.6709098, 48.5953135], [39.6701842, 48.5954748], [39.6694049, 48.5958135], [39.6688258, 48.5962879], [39.6683001, 48.5970077], [39.6679514, 48.5978501], [39.6680131, 48.5989383], [39.6681511, 48.5997379], [39.66807, 48.6007337], [39.6679424, 48.6008763], [39.6680079, 48.6011749], [39.6684537, 48.6016293], [39.6688566, 48.6021121], [39.6698389, 48.6025027], [39.6707163, 48.6030812], [39.6710692, 48.6035975], [39.6708034, 48.6039253], [39.6704345, 48.6043162], [39.6696063, 48.6046252], [39.668527, 48.6048222], [39.6676762, 48.6048852], [39.6664246, 48.6048742], [39.6658445, 48.6047906], [39.6653313, 48.6046517], [39.6649442, 48.6045945], [39.6643429, 48.6045849], [39.6638865, 48.6046215], [39.6636073, 48.6046642], [39.6633067, 48.6047707], [39.6627593, 48.6050722], [39.6625285, 48.6052088], [39.6622441, 48.6053171], [39.6615273, 48.6055384], [39.6612543, 48.6056849], [39.6610564, 48.6058846], [39.6609189, 48.6066732], [39.6608619, 48.6067878], [39.6607404, 48.6069096], [39.660503, 48.6072064], [39.6604357, 48.6074381], [39.6604193, 48.6077739], [39.6605715, 48.6080828], [39.6606539, 48.6083633], [39.6606269, 48.6085002], [39.6605517, 48.6086672], [39.660562, 48.6089054], [39.6605673, 48.6090177], [39.6606209, 48.6090875], [39.6607977, 48.6093476], [39.6609385, 48.6095939], [39.661106, 48.6099358], [39.6612092, 48.6104889], [39.6613911, 48.6107243], [39.6616696, 48.6108816], [39.6622157, 48.6113808], [39.662601, 48.6117948], [39.6629521, 48.6119985], [39.663314, 48.6123157], [39.6635915, 48.6126685], [39.6637295, 48.6129645], [39.663991, 48.6138174], [39.664186, 48.6146269], [39.6647986, 48.6151593], [39.6648313, 48.615241], [39.6648181, 48.6154539], [39.6648008, 48.6156491], [39.6648673, 48.6158973], [39.6650748, 48.6161279], [39.6651545, 48.6163105], [39.6653173, 48.6165694], [39.6656414, 48.617145], [39.6660621, 48.6176532], [39.6661432, 48.6178158], [39.666117, 48.6181769], [39.6663913, 48.6187437], [39.6665069, 48.6192825], [39.6669135, 48.6198355], [39.6671865, 48.6203851], [39.6678672, 48.6212822], [39.6681735, 48.6214278], [39.6689734, 48.6222967], [39.6715329, 48.6243287], [39.6745861, 48.6263606], [39.6776137, 48.6280345], [39.6800075, 48.6294245], [39.6843588, 48.6315376], [39.6856559, 48.6320765], [39.686953, 48.6324594], [39.6876815, 48.6327288], [39.6884529, 48.6331968], [39.6901786, 48.6350981], [39.6905727, 48.6353325], [39.6910956, 48.6354676], [39.6928041, 48.6359714], [39.6934808, 48.6364057], [39.6939859, 48.6368542], [39.6941313, 48.6372875], [39.6943125, 48.6376262], [39.694365, 48.6381068], [39.6943531, 48.6386866], [39.694272, 48.6390262], [39.6942851, 48.6396001], [39.6940449, 48.6404683], [39.6938926, 48.6411435], [39.69387, 48.6417576], [39.6937515, 48.6427807], [39.6935527, 48.6431434], [39.6930349, 48.6434807], [39.6927009, 48.643621], [39.6921369, 48.6440597], [39.6915974, 48.644825], [39.6913261, 48.6453279], [39.6911822, 48.6456807], [39.6911211, 48.646231], [39.6913153, 48.6464877], [39.6915953, 48.6466805], [39.6918914, 48.6468982], [39.6920234, 48.6471505], [39.6920894, 48.6473618], [39.6920963, 48.6476368], [39.6922611, 48.6477251], [39.6924642, 48.6478756], [39.6927025, 48.6481334], [39.6929317, 48.6483987], [39.6932018, 48.6487901], [39.6934013, 48.6489557], [39.6935766, 48.6492045], [39.6938843, 48.6493985], [39.6942233, 48.6494742], [39.6944464, 48.6495404], [39.6946358, 48.649655], [39.6948485, 48.6498558], [39.6949843, 48.6499155], [39.6952803, 48.6501261], [39.6957769, 48.6503501], [39.6965295, 48.6506286], [39.6967552, 48.6507204], [39.6970131, 48.6507874], [39.6972714, 48.6509001], [39.6982514, 48.6516017], [39.6986292, 48.6518515], [39.698979, 48.6520898], [39.6994651, 48.6523791], [39.7001051, 48.6525521], [39.7006826, 48.6526563], [39.7011645, 48.652797], [39.701679, 48.6530126], [39.7018612, 48.6530965], [39.7020917, 48.6531553], [39.7022197, 48.6531967], [39.7022995, 48.6532433], [39.7028981, 48.6538559], [39.7034609, 48.6544378], [39.7039514, 48.6547359], [39.7042382, 48.6549631], [39.7045811, 48.6553608], [39.7046372, 48.6555738], [39.7047323, 48.6558079], [39.7050696, 48.6561659], [39.7051577, 48.6563059], [39.7052662, 48.6564574], [39.7054707, 48.6565545], [39.7057444, 48.6565604], [39.7060155, 48.6566237], [39.706194, 48.6567793], [39.7063324, 48.6568165], [39.7065246, 48.6568252], [39.7067006, 48.6567632], [39.7068745, 48.6566577], [39.7070258, 48.6565199], [39.7071605, 48.6563164], [39.70727, 48.656161], [39.7073606, 48.6560479], [39.7076504, 48.6557544], [39.7080521, 48.6554428], [39.7081901, 48.655345], [39.7084729, 48.6550664], [39.7086056, 48.6549235], [39.7088114, 48.6547138], [39.7090752, 48.6545593], [39.7093547, 48.6544768], [39.7095132, 48.6544603], [39.7096917, 48.6544999], [39.7099767, 48.6545215], [39.7101675, 48.6545819], [39.7103246, 48.6546555], [39.7105399, 48.6548341], [39.7106909, 48.6550161], [39.7107812, 48.6551372], [39.7108827, 48.6555273], [39.7109495, 48.6560306], [39.7108339, 48.6569202], [39.7105344, 48.6574582], [39.7099184, 48.6584498], [39.7096, 48.6592181], [39.7095347, 48.6599301], [39.7095258, 48.6606526], [39.7096917, 48.661929], [39.7096205, 48.6623544], [39.7101286, 48.6628507], [39.7105939, 48.6638926], [39.7107193, 48.6642648], [39.710739, 48.6648477], [39.7109742, 48.6655147], [39.7110592, 48.6663801], [39.7110026, 48.6665508], [39.71047, 48.6670046], [39.7103686, 48.6671038], [39.7101921, 48.6671605], [39.7097424, 48.6673448], [39.7091533, 48.6673945], [39.7084724, 48.6674193], [39.7075152, 48.6672581], [39.7071384, 48.6670465], [39.7066875, 48.6668412], [39.7062688, 48.6667812], [39.7058167, 48.6667016], [39.7054183, 48.6666326], [39.7049797, 48.6666557], [39.7044296, 48.6666742], [39.7040159, 48.6667314], [39.703581, 48.6668044], [39.7032911, 48.6668348], [39.7021215, 48.6679811], [39.7025396, 48.6687306], [39.7030004, 48.6704068], [39.7118101, 48.6750602], [39.7150311, 48.6810023], [39.7221581, 48.6839973], [39.7162393, 48.6902791], [39.7155113, 48.6956862], [39.7199333, 48.6979207], [39.7027732, 48.7066325], [39.7110139, 48.713367], [39.7048355, 48.7214608], [39.7227146, 48.7341074], [39.7389251, 48.7484075], [39.7414097, 48.7717615], [39.7652011, 48.765006], [39.7843065, 48.7973463], [39.7971242, 48.8405734], [39.80467, 48.843574], [39.8080419, 48.8394778], [39.807501, 48.8385787], [39.8278294, 48.8314627], [39.8304368, 48.833552], [39.8862528, 48.8209434], [39.9383224, 48.7998877], [39.9522719, 48.7974751], [39.958216, 48.797851], [39.9761754, 48.7937025], [40.0788287, 48.8698642], [40.0712841, 48.8769726], [40.0554925, 48.9100958], [40.0484933, 48.9101839], [40.0311927, 48.9157989], [40.0180607, 48.9077888], [39.9837285, 48.8680575], [39.9246772, 48.8942476], [39.8711189, 48.8942476], [39.8409067, 48.9023726], [39.8244272, 48.8906359], [39.818934, 48.9077887], [39.7942148, 48.9249356], [39.7694958, 48.9303492], [39.7887218, 48.9474884], [39.7477808, 48.9879451], [39.7329741, 48.9801996], [39.7294443, 48.9778547], [39.7270453, 48.9752932], [39.724818, 48.9765626], [39.724476, 48.9780659], [39.7261598, 48.9785086], [39.7264797, 48.9786763], [39.7263788, 48.9794586], [39.7252246, 48.9802334], [39.7233621, 48.9805175], [39.7215189, 48.9812862], [39.7205544, 48.9814663], [39.7189743, 48.9816269], [39.7176204, 48.982352], [39.7176885, 48.9827446], [39.7179212, 48.9833749], [39.7176153, 48.9843606], [39.7174111, 48.9845859], [39.7168955, 48.9846986], [39.7167214, 48.98491], [39.7164977, 48.9856079], [39.7169164, 48.9862399], [39.7169168, 48.9865476], [39.7167673, 48.9870644], [39.7157096, 48.9879895], [39.7155438, 48.9882232], [39.7154054, 48.9885779], [39.7154291, 48.9894], [39.7153475, 48.9897066], [39.7150558, 48.9898974], [39.713503, 48.9895829], [39.712101, 48.9899574], [39.7118016, 48.9901915], [39.7107522, 48.9915328], [39.7097347, 48.9919487], [39.7076603, 48.9924296], [39.7074317, 48.9933462], [39.7074231, 48.994063], [39.7069211, 48.9950622], [39.7048355, 48.9973999], [39.7039514, 48.9987228], [39.7020651, 48.9994149], [39.6999944, 49.0004556], [39.6989215, 49.0006583], [39.696958, 48.9998926], [39.6933423, 48.9990394], [39.6911752, 48.9967306], [39.6912183, 48.9960549], [39.6769283, 48.9895361], [39.6634093, 49.0008695], [39.6702746, 49.0031459], [39.6792023, 49.0128842], [39.6736555, 49.0149315], [39.6756613, 49.0268858], [39.6817337, 49.0287303], [39.6835795, 49.0369223], [39.6731505, 49.0391727], [39.6929349, 49.0495248], [39.729675, 49.0430052], [39.7681225, 49.0402983], [39.7887186, 49.0499747], [39.8031412, 49.0591995], [39.8203073, 49.0582996], [39.8752387, 49.0654984], [39.9088872, 49.0574038], [39.9377233, 49.0560499], [39.9425299, 49.0713444], [39.9387357, 49.0832597], [39.9727224, 49.1252911], [39.9974614, 49.1473102], [40.0315729, 49.1802382], [40.0761276, 49.1868252], [40.0927571, 49.2031613], [40.1082875, 49.2108803], [40.1217662, 49.2307081], [40.1365378, 49.2391541], [40.1768242, 49.2368702], [40.209671, 49.2417753], [40.2143684, 49.2448843], [40.2208041, 49.2577711], [40.2192618, 49.2651691], [40.1859361, 49.2840058], [40.1851963, 49.3042066], [40.188524, 49.3074409], [40.1910582, 49.3179433], [40.1968119, 49.3452254], [40.1918349, 49.3483315], [40.1755684, 49.3566161], [40.1701797, 49.3563977], [40.1599319, 49.3654561], [40.1620428, 49.3682539], [40.1445965, 49.3776647], [40.1124341, 49.3857491], [40.0769068, 49.4099548], [40.0593769, 49.434088], [40.0480275, 49.4443722], [40.029445, 49.4537775], [40.041758, 49.4991003], [40.037597, 49.5198928], [40.1684327, 49.5689182], [40.139523, 49.5962718], [40.1352564, 49.6162513], [40.0635357, 49.5992308], [40.0567267, 49.606571], [39.9522207, 49.5965467], [39.9345988, 49.5727807], [39.8902222, 49.5583566], [39.8660215, 49.5597836], [39.8389118, 49.5635154], [39.8080571, 49.5580478], [39.7683386, 49.5852892], [39.7502298, 49.5967168], [39.7127452, 49.6059205], [39.6967454, 49.6042891], [39.6869239, 49.6115557], [39.6599932, 49.6148084], [39.6383769, 49.6350974], [39.6131314, 49.6903603], [39.591959, 49.7196306], [39.6083906, 49.7339069], [39.5338327, 49.7408455], [39.4787588, 49.7564723], [39.438199, 49.7600039], [39.4120602, 49.7531086], [39.3769608, 49.7384218], [39.3079217, 49.7530412], [39.2855581, 49.755664], [39.2799634, 49.7609078], [39.2754686, 49.7680241], [39.2646369, 49.7684778], [39.2503694, 49.7777994], [39.2403698, 49.7911204], [39.2391442, 49.7982241], [39.2289901, 49.8084299], [39.2281121, 49.8165004], [39.2256545, 49.8401819], [39.1883931, 49.8862199], [39.1784, 49.8879987], [39.1285048, 49.8597951], [39.1111368, 49.839044], [39.0697611, 49.8187284], [39.066231, 49.8153466], [39.0335202, 49.82237], [39.0216582, 49.8209079], [38.9849036, 49.8077809], [38.9711357, 49.8072184], [38.9648911, 49.8038751], [38.9488141, 49.796072], [38.946661, 49.7978041], [38.9394903, 49.8006646], [38.9364393, 49.8002009], [38.9334722, 49.7997759], [38.9329084, 49.7975781], [38.9307509, 49.7971714], [38.9278092, 49.7985739], [38.9274188, 49.8013787], [38.9286977, 49.8038859], [38.9259171, 49.8041649], [38.9203554, 49.804944], [38.9191867, 49.8089397], [38.9161611, 49.8127213], [38.9190365, 49.8138599], [38.9182637, 49.8148081], [38.9122526, 49.8180335], [38.9098426, 49.8182812], [38.9087973, 49.8227646], [38.9073906, 49.8284099], [38.9135056, 49.8286273], [38.9150923, 49.8310564], [38.9113965, 49.8345865], [38.9143051, 49.8369976], [38.9125661, 49.8435934], [38.9065326, 49.8446545], [38.9042752, 49.8488149], [38.9096681, 49.850847], [38.9195172, 49.8586388], [38.9093357, 49.8601006], [38.898465, 49.8704141], [38.8764137, 49.8694205], [38.8751339, 49.8685366], [38.87459, 49.8678766], [38.8745611, 49.8666358], [38.8693967, 49.8644861], [38.8668357, 49.864889], [38.8653186, 49.8660268], [38.8627136, 49.8658678], [38.8571602, 49.8680113], [38.8566102, 49.8686469], [38.855853, 49.8688883], [38.854455, 49.868193], [38.8541729, 49.8678573], [38.8541605, 49.8674272], [38.8538353, 49.8671201], [38.8520263, 49.8665061], [38.8514124, 49.8661631], [38.8506137, 49.8658643], [38.8491023, 49.8651008], [38.8467233, 49.8654823], [38.846128, 49.8657198], [38.845667, 49.8658073], [38.8439298, 49.8651801], [38.8432878, 49.8651428], [38.8393432, 49.8657594], [38.8389639, 49.8660243], [38.8360165, 49.8671348], [38.8363444, 49.8673642], [38.8348111, 49.8690675], [38.8346623, 49.8709528], [38.8366818, 49.8721511], [38.8356992, 49.8738284], [38.8349355, 49.8743344], [38.8344381, 49.8745717], [38.8329709, 49.8747421], [38.827761, 49.8771566], [38.8270396, 49.8777541], [38.8260257, 49.8783681], [38.8244268, 49.8789324], [38.8224303, 49.878982], [38.7949557, 49.8833076], [38.7901479, 49.8785076], [38.7834858, 49.8811108], [38.777681, 49.8853176], [38.7682298, 49.8960418], [38.7438449, 49.8973048], [38.742281, 49.8989189], [38.7338438, 49.9050226], [38.7232453, 49.927003], [38.6928985, 49.9347634], [38.685298, 49.9603414], [38.7153131, 49.9823814], [38.7151347, 49.9877076], [38.6874838, 50.0058341], [38.6842822, 50.0074883], [38.6797076, 50.0025228], [38.6760522, 49.9928115], [38.6797293, 49.9744915], [38.6669388, 49.9721541], [38.6461941, 49.9559349], [38.6160761, 49.9743876], [38.5815678, 49.9774138], [38.5267136, 49.9582684], [38.5078966, 49.9640277], [38.4877041, 49.9635998], [38.4832986, 49.9765256], [38.4775179, 49.9832689], [38.465912, 49.9839589], [38.4680378, 49.9952445], [38.4340933, 50.0010164], [38.4160059, 49.9813358], [38.3975608, 49.9905828], [38.3495729, 50.0064418], [38.3541621, 50.019046], [38.3511987, 50.0347384], [38.333974, 50.0590905], [38.3290971, 50.0852049], [38.3126358, 50.0885826], [38.300294, 50.0866717], [38.2927791, 50.079324], [38.2770672, 50.0729966], [38.2463336, 50.0731122], [38.1785128, 50.0797945], [38.1787134, 50.0777809], [38.1790856, 50.0774198], [38.1818466, 50.0678015], [38.1819184, 50.0668677], [38.1850647, 50.0556901], [38.1838253, 50.0458296], [38.1875578, 50.0410481], [38.1880071, 50.0393948], [38.1882313, 50.0307843], [38.1886702, 50.0268599], [38.1883893, 50.0244699], [38.1881577, 50.0234077], [38.1862524, 50.0227729], [38.1853816, 50.0220685], [38.1869793, 50.0214602], [38.1924386, 50.0137928], [38.1971766, 50.0082193], [38.2009438, 50.0046565], [38.2008054, 50.0036314], [38.202641, 50.0016684], [38.2050047, 50.0007676], [38.2046727, 49.9982874], [38.2050272, 49.9967451], [38.2077102, 49.9915087], [38.2098144, 49.9901953], [38.21085, 49.9892452], [38.2155322, 49.9881847], [38.2164377, 49.9871793], [38.2552452, 49.9095324], [38.1769678, 49.8422717], [38.1879541, 49.7394299], [38.1330224, 49.5972206], [38.168728, 49.5544768], [38.1083031, 49.4438818], [38.1440087, 49.3884906], [38.2341027, 49.3692379], [38.2251763, 49.2156332], [38.1839778, 49.2021756], [38.1832912, 49.1617809], [38.17845, 49.1332302], [38.2280542, 49.063784], [38.2675244, 49.0401423], [38.3036591, 49.0451495], [38.3344555, 49.0326858], [38.3403622, 49.0424549], [38.3448781, 49.0468691], [38.3553409, 49.0539603], [38.4068496, 49.0360301], [38.4199637, 49.0292207], [38.4241521, 49.0156399]]]}}, {"type": "Feature", "properties": {"name": "Occupied", "date": "2022-05-31", "layer_type": "russian_occupied"}, "geometry": {"type": "Polygon", "coordinates": [[[37.2231318, 49.1194034], [37.2160909, 49.1312467], [37.1575768, 49.1411247], [37.1256662, 49.143124], [37.1040567, 49.1506187], [37.072951, 49.1599985], [37.0425229, 49.1653288], [37.0297762, 49.1562483], [37.047238, 49.1478409], [37.0384608, 49.1377036], [37.0328474, 49.1295083], [36.9845681, 49.1228908], [37.0393266, 49.1156171], [37.1078685, 49.1187591], [37.1596188, 49.1022147], [37.1486248, 49.082893], [37.166356, 49.0354245], [37.178588, 49.0242005], [37.200791, 49.0210114], [37.2203803, 49.0173771], [37.2377824, 49.0190444], [37.2500363, 49.0229613], [37.2539491, 49.032019], [37.2466141, 49.039979], [37.2289274, 49.0941729], [37.2326181, 49.1025465], [37.230129, 49.1157503], [37.2292562, 49.1200134], [37.2231318, 49.1194034]]]}}, {"type": "Feature", "properties": {"name": "Sieverodonetsk. Territories, which are under occupation.\nAs of 30.05, the occupation of the quarter with the \"Mir\" hotel, bus station block, 79, 80, 81, 82 microdistricts, CYSS #1 has been visually confirmed", "date": "2022-05-31", "layer_type": "russian_occupied"}, "geometry": {"type": "Polygon", "coordinates": [[[38.5469867, 48.9466871], [38.5245814, 48.9515553], [38.5159291, 48.9529027], [38.511397, 48.9543621], [38.5071913, 48.960954], [38.5034873, 48.9636375], [38.4952355, 48.9641132], [38.4879984, 48.9644417], [38.4814356, 48.9671326], [38.471625, 48.968892], [38.464136, 48.9686375], [38.4561328, 48.9670038], [38.4626479, 48.9625605], [38.47517, 48.9605959], [38.4756374, 48.9607145], [38.4766006, 48.9590268], [38.4800315, 48.959861], [38.4820119, 48.9565347], [38.4870574, 48.9524479], [38.4894849, 48.9530109], [38.4954175, 48.9432995], [38.5024954, 48.9450294], [38.5106215, 48.947207], [38.511858, 48.9474292], [38.5258618, 48.9446496], [38.5197164, 48.9317748], [38.5207972, 48.9305723], [38.5215347, 48.9291019], [38.524999, 48.9292533], [38.5324546, 48.9293672], [38.5346637, 48.9318502], [38.5363375, 48.9372666], [38.5575382, 48.9365924], [38.5610177, 48.9443459], [38.5469867, 48.9466871]]]}}]}